<?xml version='1.0' encoding='utf-8'?>
<osm attribution="https://www.openstreetmap.org/copyright" copyright="OpenStreetMap and contributors" generator="OSMnx 2.1.0" license="https://opendatacommons.org/licenses/odbl/1-0/" version="0.6"><bounds minlon="121.5396354" minlat="25.0382481" maxlon="121.5473478" maxlat="25.0453306" /><node visible="true" uid="1" changeset="1" timestamp="2026-04-20T20:12:18Z" id="25423625" lat="25.0449613" version="1" lon="121.5437953" user="OSMnx"><tag k="highway" v="traffic_signals" /></node><node visible="true" uid="1" changeset="1" timestamp="2026-04-20T20:12:18Z" id="181184587" lat="25.0416839" version="1" lon="121.5438394" user="OSMnx"><tag k="highway" v="traffic_signals" /></node><node visible="true" uid="1" changeset="1" timestamp="2026-04-20T20:12:18Z" id="253559061" lat="25.0415558" version="1" lon="121.5438379" user="OSMnx"><tag k="highway" v="traffic_signals" /></node><node visible="true" uid="1" changeset="1" timestamp="2026-04-20T20:12:18Z" id="618865756" lat="25.0393697" version="1" lon="121.5460708" user="OSMnx" /><node visible="true" uid="1" changeset="1" timestamp="2026-04-20T20:12:18Z" id="618865977" lat="25.0416931" version="1" lon="121.5437139" user="OSMnx"><tag k="highway" v="traffic_signals" /></node><node visible="true" uid="1" changeset="1" timestamp="2026-04-20T20:12:18Z" id="618865982" lat="25.041558" version="1" lon="121.5437139" user="OSMnx"><tag k="highway" v="traffic_signals" /></node><node visible="true" uid="1" changeset="1" timestamp="2026-04-20T20:12:18Z" id="618866136" lat="25.0415449" version="1" lon="121.5444504" user="OSMnx" /><node visible="true" uid="1" changeset="1" timestamp="2026-04-20T20:12:18Z" id="618866143" lat="25.0408272" version="1" lon="121.5438236" user="OSMnx" /><node visible="true" uid="1" changeset="1" timestamp="2026-04-20T20:12:18Z" id="618866148" lat="25.0409812" version="1" lon="121.5461058" user="OSMnx" /><node visible="true" uid="1" changeset="1" timestamp="2026-04-20T20:12:18Z" id="618866199" lat="25.0401691" version="1" lon="121.5471827" user="OSMnx" /><node visible="true" uid="1" changeset="1" timestamp="2026-04-20T20:12:18Z" id="618866202" lat="25.0401878" version="1" lon="121.5460886" user="OSMnx" /><node visible="true" uid="1" changeset="1" timestamp="2026-04-20T20:12:18Z" id="618866230" lat="25.0398186" version="1" lon="121.5438038" user="OSMnx"><tag k="highway" v="traffic_signals" /></node><node visible="true" uid="1" changeset="1" timestamp="2026-04-20T20:12:18Z" id="618866246" lat="25.0397916" version="1" lon="121.54608" user="OSMnx" /><node visible="true" uid="1" changeset="1" timestamp="2026-04-20T20:12:18Z" id="618866369" lat="25.0386085" version="1" lon="121.5460543" user="OSMnx" /><node visible="true" uid="1" changeset="1" timestamp="2026-04-20T20:12:18Z" id="618866397" lat="25.0415289" version="1" lon="121.5452408" user="OSMnx" /><node visible="true" uid="1" changeset="1" timestamp="2026-04-20T20:12:18Z" id="618866456" lat="25.0405694" version="1" lon="121.5471911" user="OSMnx" /><node visible="true" uid="1" changeset="1" timestamp="2026-04-20T20:12:18Z" id="618866467" lat="25.0405874" version="1" lon="121.5460955" user="OSMnx" /><node visible="true" uid="1" changeset="1" timestamp="2026-04-20T20:12:18Z" id="618866534" lat="25.0414992" version="1" lon="121.5472106" user="OSMnx"><tag k="highway" v="traffic_signals" /></node><node visible="true" uid="1" changeset="1" timestamp="2026-04-20T20:12:18Z" id="618866597" lat="25.0415216" version="1" lon="121.5461208" user="OSMnx"><tag k="highway" v="traffic_signals" /></node><node visible="true" uid="1" changeset="1" timestamp="2026-04-20T20:12:18Z" id="618866856" lat="25.0389972" version="1" lon="121.5460628" user="OSMnx"><tag k="highway" v="traffic_signals" /></node><node visible="true" uid="1" changeset="1" timestamp="2026-04-20T20:12:18Z" id="618866860" lat="25.0390418" version="1" lon="121.5437885" user="OSMnx" /><node visible="true" uid="1" changeset="1" timestamp="2026-04-20T20:12:18Z" id="618866932" lat="25.0416532" version="1" lon="121.5461604" user="OSMnx"><tag k="highway" v="traffic_signals" /></node><node visible="true" uid="1" changeset="1" timestamp="2026-04-20T20:12:18Z" id="618955583" lat="25.0444986" version="1" lon="121.5416867" user="OSMnx" /><node visible="true" uid="1" changeset="1" timestamp="2026-04-20T20:12:18Z" id="618955584" lat="25.0447395" version="1" lon="121.5437875" user="OSMnx"><tag k="highway" v="traffic_signals" /></node><node visible="true" uid="1" changeset="1" timestamp="2026-04-20T20:12:18Z" id="618955585" lat="25.0447557" version="1" lon="121.5439352" user="OSMnx"><tag k="highway" v="traffic_signals" /></node><node visible="true" uid="1" changeset="1" timestamp="2026-04-20T20:12:18Z" id="618955586" lat="25.0449548" version="1" lon="121.5456564" user="OSMnx" /><node visible="true" uid="1" changeset="1" timestamp="2026-04-20T20:12:18Z" id="618955587" lat="25.0449767" version="1" lon="121.5459112" user="OSMnx" /><node visible="true" uid="1" changeset="1" timestamp="2026-04-20T20:12:18Z" id="618955589" lat="25.0450046" version="1" lon="121.5464396" user="OSMnx" /><node visible="true" uid="1" changeset="1" timestamp="2026-04-20T20:12:18Z" id="618955590" lat="25.0449901" version="1" lon="121.5467138" user="OSMnx" /><node visible="true" uid="1" changeset="1" timestamp="2026-04-20T20:12:18Z" id="618955591" lat="25.0449572" version="1" lon="121.5471075" user="OSMnx" /><node visible="true" uid="1" changeset="1" timestamp="2026-04-20T20:12:18Z" id="618955695" lat="25.0451826" version="1" lon="121.5469418" user="OSMnx" /><node visible="true" uid="1" changeset="1" timestamp="2026-04-20T20:12:18Z" id="618955699" lat="25.0451954" version="1" lon="121.5459206" user="OSMnx" /><node visible="true" uid="1" changeset="1" timestamp="2026-04-20T20:12:18Z" id="618955703" lat="25.0449789" version="1" lon="121.5439383" user="OSMnx"><tag k="highway" v="traffic_signals" /></node><node visible="true" uid="1" changeset="1" timestamp="2026-04-20T20:12:18Z" id="618955736" lat="25.0426623" version="1" lon="121.5461689" user="OSMnx" /><node visible="true" uid="1" changeset="1" timestamp="2026-04-20T20:12:18Z" id="619120246" lat="25.0440097" version="1" lon="121.5461976" user="OSMnx" /><node visible="true" uid="1" changeset="1" timestamp="2026-04-20T20:12:18Z" id="619120261" lat="25.0444496" version="1" lon="121.5462164" user="OSMnx" /><node visible="true" uid="1" changeset="1" timestamp="2026-04-20T20:12:18Z" id="619120262" lat="25.0444162" version="1" lon="121.5472981" user="OSMnx" /><node visible="true" uid="1" changeset="1" timestamp="2026-04-20T20:12:18Z" id="619120277" lat="25.0442576" version="1" lon="121.5462084" user="OSMnx" /><node visible="true" uid="1" changeset="1" timestamp="2026-04-20T20:12:18Z" id="619120318" lat="25.0443785" version="1" lon="121.5462144" user="OSMnx" /><node visible="true" uid="1" changeset="1" timestamp="2026-04-20T20:12:18Z" id="619120324" lat="25.0431009" version="1" lon="121.5461802" user="OSMnx" /><node visible="true" uid="1" changeset="1" timestamp="2026-04-20T20:12:18Z" id="619120327" lat="25.04167" version="1" lon="121.5444525" user="OSMnx" /><node visible="true" uid="1" changeset="1" timestamp="2026-04-20T20:12:18Z" id="619120329" lat="25.0426774" version="1" lon="121.5444802" user="OSMnx" /><node visible="true" uid="1" changeset="1" timestamp="2026-04-20T20:12:18Z" id="619120331" lat="25.0436258" version="1" lon="121.5445067" user="OSMnx" /><node visible="true" uid="1" changeset="1" timestamp="2026-04-20T20:12:18Z" id="619120332" lat="25.0448277" version="1" lon="121.5445389" user="OSMnx" /><node visible="true" uid="1" changeset="1" timestamp="2026-04-20T20:12:18Z" id="619120333" lat="25.0419436" version="1" lon="121.5461736" user="OSMnx" /><node visible="true" uid="1" changeset="1" timestamp="2026-04-20T20:12:18Z" id="619120340" lat="25.0435961" version="1" lon="121.5453088" user="OSMnx" /><node visible="true" uid="1" changeset="1" timestamp="2026-04-20T20:12:18Z" id="619120343" lat="25.0425916" version="1" lon="121.5452812" user="OSMnx" /><node visible="true" uid="1" changeset="1" timestamp="2026-04-20T20:12:18Z" id="619120353" lat="25.0416689" version="1" lon="121.5452562" user="OSMnx" /><node visible="true" uid="1" changeset="1" timestamp="2026-04-20T20:12:18Z" id="619120359" lat="25.0436325" version="1" lon="121.5439036" user="OSMnx"><tag k="highway" v="traffic_signals" /></node><node visible="true" uid="1" changeset="1" timestamp="2026-04-20T20:12:18Z" id="619120361" lat="25.0435869" version="1" lon="121.5461909" user="OSMnx" /><node visible="true" uid="1" changeset="1" timestamp="2026-04-20T20:12:18Z" id="619120364" lat="25.0435532" version="1" lon="121.5472706" user="OSMnx" /><node visible="true" uid="1" changeset="1" timestamp="2026-04-20T20:12:18Z" id="619120383" lat="25.0426913" version="1" lon="121.5438719" user="OSMnx" /><node visible="true" uid="1" changeset="1" timestamp="2026-04-20T20:12:18Z" id="619120409" lat="25.0421892" version="1" lon="121.5461593" user="OSMnx" /><node visible="true" uid="1" changeset="1" timestamp="2026-04-20T20:12:18Z" id="619120418" lat="25.0449387" version="1" lon="121.5472821" user="OSMnx" /><node visible="true" uid="1" changeset="1" timestamp="2026-04-20T20:12:18Z" id="619120419" lat="25.0426234" version="1" lon="121.5472411" user="OSMnx" /><node visible="true" uid="1" changeset="1" timestamp="2026-04-20T20:12:18Z" id="619120420" lat="25.042167" version="1" lon="121.5472265" user="OSMnx" /><node visible="true" uid="1" changeset="1" timestamp="2026-04-20T20:12:18Z" id="619120421" lat="25.0416319" version="1" lon="121.5472095" user="OSMnx"><tag k="highway" v="traffic_signals" /></node><node visible="true" uid="1" changeset="1" timestamp="2026-04-20T20:12:18Z" id="619136824" lat="25.0415955" version="1" lon="121.5401251" user="OSMnx" /><node visible="true" uid="1" changeset="1" timestamp="2026-04-20T20:12:18Z" id="619136851" lat="25.0402607" version="1" lon="121.5420214" user="OSMnx"><tag k="highway" v="crossing" /></node><node visible="true" uid="1" changeset="1" timestamp="2026-04-20T20:12:18Z" id="619136853" lat="25.0406932" version="1" lon="121.5413068" user="OSMnx" /><node visible="true" uid="1" changeset="1" timestamp="2026-04-20T20:12:18Z" id="619136854" lat="25.0406786" version="1" lon="121.5420346" user="OSMnx" /><node visible="true" uid="1" changeset="1" timestamp="2026-04-20T20:12:18Z" id="619136855" lat="25.0406702" version="1" lon="121.5424513" user="OSMnx" /><node visible="true" uid="1" changeset="1" timestamp="2026-04-20T20:12:18Z" id="619136856" lat="25.0406582" version="1" lon="121.5430522" user="OSMnx" /><node visible="true" uid="1" changeset="1" timestamp="2026-04-20T20:12:18Z" id="619136857" lat="25.0406451" version="1" lon="121.5437048" user="OSMnx" /><node visible="true" uid="1" changeset="1" timestamp="2026-04-20T20:12:18Z" id="619136858" lat="25.0415714" version="1" lon="121.5424752" user="OSMnx" /><node visible="true" uid="1" changeset="1" timestamp="2026-04-20T20:12:18Z" id="619136859" lat="25.0411059" version="1" lon="121.5424632" user="OSMnx" /><node visible="true" uid="1" changeset="1" timestamp="2026-04-20T20:12:18Z" id="619136860" lat="25.0411181" version="1" lon="121.541314" user="OSMnx" /><node visible="true" uid="1" changeset="1" timestamp="2026-04-20T20:12:18Z" id="619136868" lat="25.0415836" version="1" lon="121.5413218" user="OSMnx"><tag k="highway" v="traffic_signals" /></node><node visible="true" uid="1" changeset="1" timestamp="2026-04-20T20:12:18Z" id="619136869" lat="25.0394573" version="1" lon="121.5412861" user="OSMnx" /><node visible="true" uid="1" changeset="1" timestamp="2026-04-20T20:12:18Z" id="619136870" lat="25.0390778" version="1" lon="121.5412797" user="OSMnx" /><node visible="true" uid="1" changeset="1" timestamp="2026-04-20T20:12:18Z" id="619136871" lat="25.0383817" version="1" lon="121.541268" user="OSMnx"><tag k="highway" v="traffic_signals" /></node><node visible="true" uid="1" changeset="1" timestamp="2026-04-20T20:12:18Z" id="619136872" lat="25.0390673" version="1" lon="121.5419837" user="OSMnx" /><node visible="true" uid="1" changeset="1" timestamp="2026-04-20T20:12:18Z" id="619136874" lat="25.0390319" version="1" lon="121.5436675" user="OSMnx" /><node visible="true" uid="1" changeset="1" timestamp="2026-04-20T20:12:18Z" id="619136875" lat="25.0394538" version="1" lon="121.5419959" user="OSMnx" /><node visible="true" uid="1" changeset="1" timestamp="2026-04-20T20:12:18Z" id="619136877" lat="25.0398594" version="1" lon="121.5420087" user="OSMnx" /><node visible="true" uid="1" changeset="1" timestamp="2026-04-20T20:12:18Z" id="619136878" lat="25.0398362" version="1" lon="121.5430344" user="OSMnx" /><node visible="true" uid="1" changeset="1" timestamp="2026-04-20T20:12:18Z" id="619136879" lat="25.0398213" version="1" lon="121.5436858" user="OSMnx"><tag k="highway" v="traffic_signals" /></node><node visible="true" uid="1" changeset="1" timestamp="2026-04-20T20:12:18Z" id="619137551" lat="25.0383123" version="1" lon="121.5415345" user="OSMnx" /><node visible="true" uid="1" changeset="1" timestamp="2026-04-20T20:12:18Z" id="619137557" lat="25.0383888" version="1" lon="121.541143" user="OSMnx" /><node visible="true" uid="1" changeset="1" timestamp="2026-04-20T20:12:18Z" id="622617634" lat="25.0439352" version="1" lon="121.5407181" user="OSMnx"><tag k="highway" v="crossing" /></node><node visible="true" uid="1" changeset="1" timestamp="2026-04-20T20:12:18Z" id="622617641" lat="25.0439267" version="1" lon="121.5416598" user="OSMnx" /><node visible="true" uid="1" changeset="1" timestamp="2026-04-20T20:12:18Z" id="622617649" lat="25.0438482" version="1" lon="121.5422125" user="OSMnx" /><node visible="true" uid="1" changeset="1" timestamp="2026-04-20T20:12:18Z" id="622617652" lat="25.0438229" version="1" lon="121.5423566" user="OSMnx" /><node visible="true" uid="1" changeset="1" timestamp="2026-04-20T20:12:18Z" id="622617655" lat="25.0437863" version="1" lon="121.5425974" user="OSMnx" /><node visible="true" uid="1" changeset="1" timestamp="2026-04-20T20:12:18Z" id="622617658" lat="25.0437443" version="1" lon="121.5427377" user="OSMnx" /><node visible="true" uid="1" changeset="1" timestamp="2026-04-20T20:12:18Z" id="622617660" lat="25.043567" version="1" lon="121.54303" user="OSMnx" /><node visible="true" uid="1" changeset="1" timestamp="2026-04-20T20:12:18Z" id="622617663" lat="25.0431033" version="1" lon="121.5434457" user="OSMnx" /><node visible="true" uid="1" changeset="1" timestamp="2026-04-20T20:12:18Z" id="622617671" lat="25.0444631" version="1" lon="121.540679" user="OSMnx" /><node visible="true" uid="1" changeset="1" timestamp="2026-04-20T20:12:18Z" id="622617687" lat="25.044583" version="1" lon="121.5424182" user="OSMnx"><tag k="highway" v="crossing" /></node><node visible="true" uid="1" changeset="1" timestamp="2026-04-20T20:12:18Z" id="622617691" lat="25.0431382" version="1" lon="121.5424506" user="OSMnx"><tag k="highway" v="crossing" /></node><node visible="true" uid="1" changeset="1" timestamp="2026-04-20T20:12:18Z" id="622617694" lat="25.0431029" version="1" lon="121.5437429" user="OSMnx" /><node visible="true" uid="1" changeset="1" timestamp="2026-04-20T20:12:18Z" id="622617731" lat="25.0436196" version="1" lon="121.539731" user="OSMnx" /><node visible="true" uid="1" changeset="1" timestamp="2026-04-20T20:12:18Z" id="622617734" lat="25.0430775" version="1" lon="121.5407079" user="OSMnx"><tag k="highway" v="crossing" /></node><node visible="true" uid="1" changeset="1" timestamp="2026-04-20T20:12:18Z" id="622617735" lat="25.0430831" version="1" lon="121.5397237" user="OSMnx"><tag k="highway" v="crossing" /></node><node visible="true" uid="1" changeset="1" timestamp="2026-04-20T20:12:18Z" id="622617748" lat="25.0436158" version="1" lon="121.5407144" user="OSMnx" /><node visible="true" uid="1" changeset="1" timestamp="2026-04-20T20:12:18Z" id="622617754" lat="25.0438165" version="1" lon="121.5397329" user="OSMnx" /><node visible="true" uid="1" changeset="1" timestamp="2026-04-20T20:12:18Z" id="622617757" lat="25.0438156" version="1" lon="121.5407179" user="OSMnx" /><node visible="true" uid="1" changeset="1" timestamp="2026-04-20T20:12:18Z" id="622617760" lat="25.0438891" version="1" lon="121.5397312" user="OSMnx" /><node visible="true" uid="1" changeset="1" timestamp="2026-04-20T20:12:18Z" id="622617772" lat="25.0426457" version="1" lon="121.542662" user="OSMnx" /><node visible="true" uid="1" changeset="1" timestamp="2026-04-20T20:12:18Z" id="622617775" lat="25.0426585" version="1" lon="121.5416489" user="OSMnx" /><node visible="true" uid="1" changeset="1" timestamp="2026-04-20T20:12:18Z" id="622617778" lat="25.0426652" version="1" lon="121.5407029" user="OSMnx" /><node visible="true" uid="1" changeset="1" timestamp="2026-04-20T20:12:18Z" id="622617782" lat="25.0429926" version="1" lon="121.5407068" user="OSMnx" /><node visible="true" uid="1" changeset="1" timestamp="2026-04-20T20:12:18Z" id="622617783" lat="25.0429796" version="1" lon="121.5416517" user="OSMnx" /><node visible="true" uid="1" changeset="1" timestamp="2026-04-20T20:12:18Z" id="622617784" lat="25.0429696" version="1" lon="121.5425161" user="OSMnx" /><node visible="true" uid="1" changeset="1" timestamp="2026-04-20T20:12:18Z" id="622617793" lat="25.043341" version="1" lon="121.5397303" user="OSMnx" /><node visible="true" uid="1" changeset="1" timestamp="2026-04-20T20:12:18Z" id="622617795" lat="25.0433266" version="1" lon="121.5407106" user="OSMnx" /><node visible="true" uid="1" changeset="1" timestamp="2026-04-20T20:12:18Z" id="622617798" lat="25.0432973" version="1" lon="121.5416544" user="OSMnx" /><node visible="true" uid="1" changeset="1" timestamp="2026-04-20T20:12:18Z" id="622617801" lat="25.0432898" version="1" lon="121.542385" user="OSMnx" /><node visible="true" uid="1" changeset="1" timestamp="2026-04-20T20:12:18Z" id="622617809" lat="25.0436062" version="1" lon="121.5416571" user="OSMnx" /><node visible="true" uid="1" changeset="1" timestamp="2026-04-20T20:12:18Z" id="622617810" lat="25.043607" version="1" lon="121.5422732" user="OSMnx" /><node visible="true" uid="1" changeset="1" timestamp="2026-04-20T20:12:18Z" id="622617823" lat="25.0443148" version="1" lon="121.5437763" user="OSMnx" /><node visible="true" uid="1" changeset="1" timestamp="2026-04-20T20:12:18Z" id="622617826" lat="25.0440597" version="1" lon="121.5429596" user="OSMnx" /><node visible="true" uid="1" changeset="1" timestamp="2026-04-20T20:12:18Z" id="622617831" lat="25.0440234" version="1" lon="121.5422389" user="OSMnx" /><node visible="true" uid="1" changeset="1" timestamp="2026-04-20T20:12:18Z" id="622617835" lat="25.0423477" version="1" lon="121.5416463" user="OSMnx" /><node visible="true" uid="1" changeset="1" timestamp="2026-04-20T20:12:18Z" id="622617837" lat="25.0420416" version="1" lon="121.5416417" user="OSMnx" /><node visible="true" uid="1" changeset="1" timestamp="2026-04-20T20:12:18Z" id="622617839" lat="25.0417226" version="1" lon="121.5416409" user="OSMnx"><tag k="highway" v="traffic_signals" /></node><node visible="true" uid="1" changeset="1" timestamp="2026-04-20T20:12:18Z" id="622617858" lat="25.0420621" version="1" lon="121.5397125" user="OSMnx"><tag k="highway" v="crossing" /></node><node visible="true" uid="1" changeset="1" timestamp="2026-04-20T20:12:18Z" id="622617859" lat="25.0420496" version="1" lon="121.5406943" user="OSMnx"><tag k="highway" v="crossing" /></node><node visible="true" uid="1" changeset="1" timestamp="2026-04-20T20:12:18Z" id="622617865" lat="25.0425883" version="1" lon="121.5397183" user="OSMnx"><tag k="highway" v="crossing" /></node><node visible="true" uid="1" changeset="1" timestamp="2026-04-20T20:12:18Z" id="622617869" lat="25.0425789" version="1" lon="121.5407018" user="OSMnx"><tag k="highway" v="crossing" /></node><node visible="true" uid="1" changeset="1" timestamp="2026-04-20T20:12:18Z" id="622617891" lat="25.0428335" version="1" lon="121.5397193" user="OSMnx" /><node visible="true" uid="1" changeset="1" timestamp="2026-04-20T20:12:18Z" id="622617898" lat="25.0423562" version="1" lon="121.5406986" user="OSMnx" /><node visible="true" uid="1" changeset="1" timestamp="2026-04-20T20:12:18Z" id="622617901" lat="25.0423385" version="1" lon="121.542829" user="OSMnx" /><node visible="true" uid="1" changeset="1" timestamp="2026-04-20T20:12:18Z" id="622617916" lat="25.0441129" version="1" lon="121.5416401" user="OSMnx"><tag k="highway" v="crossing" /></node><node visible="true" uid="1" changeset="1" timestamp="2026-04-20T20:12:18Z" id="622617925" lat="25.0440899" version="1" lon="121.5400501" user="OSMnx"><tag k="highway" v="crossing" /></node><node visible="true" uid="1" changeset="1" timestamp="2026-04-20T20:12:18Z" id="622617928" lat="25.0423273" version="1" lon="121.5397178" user="OSMnx" /><node visible="true" uid="1" changeset="1" timestamp="2026-04-20T20:12:18Z" id="622617930" lat="25.0417443" version="1" lon="121.539709" user="OSMnx"><tag k="highway" v="traffic_signals" /></node><node visible="true" uid="1" changeset="1" timestamp="2026-04-20T20:12:18Z" id="622617935" lat="25.0423138" version="1" lon="121.5406986" user="OSMnx" /><node visible="true" uid="1" changeset="1" timestamp="2026-04-20T20:12:18Z" id="622617959" lat="25.0417333" version="1" lon="121.5406916" user="OSMnx" /><node visible="true" uid="1" changeset="1" timestamp="2026-04-20T20:12:18Z" id="622617965" lat="25.0420381" version="1" lon="121.5429862" user="OSMnx" /><node visible="true" uid="1" changeset="1" timestamp="2026-04-20T20:12:18Z" id="622617973" lat="25.0445548" version="1" lon="121.5421703" user="OSMnx"><tag k="highway" v="traffic_signals" /></node><node visible="true" uid="1" changeset="1" timestamp="2026-04-20T20:12:18Z" id="622617976" lat="25.0417071" version="1" lon="121.5430163" user="OSMnx" /><node visible="true" uid="1" changeset="1" timestamp="2026-04-20T20:12:18Z" id="622618201" lat="25.0444965" version="1" lon="121.5399655" user="OSMnx" /><node visible="true" uid="1" changeset="1" timestamp="2026-04-20T20:12:18Z" id="622618203" lat="25.044471" version="1" lon="121.5413865" user="OSMnx" /><node visible="true" uid="1" changeset="1" timestamp="2026-04-20T20:12:18Z" id="622618234" lat="25.0447874" version="1" lon="121.5423018" user="OSMnx" /><node visible="true" uid="1" changeset="1" timestamp="2026-04-20T20:12:18Z" id="622618235" lat="25.0447389" version="1" lon="121.5416687" user="OSMnx" /><node visible="true" uid="1" changeset="1" timestamp="2026-04-20T20:12:18Z" id="622618236" lat="25.0447043" version="1" lon="121.5412061" user="OSMnx" /><node visible="true" uid="1" changeset="1" timestamp="2026-04-20T20:12:18Z" id="622618237" lat="25.0447049" version="1" lon="121.5404141" user="OSMnx" /><node visible="true" uid="1" changeset="1" timestamp="2026-04-20T20:12:18Z" id="623979724" lat="25.0451487" version="1" lon="121.5472561" user="OSMnx" /><node visible="true" uid="1" changeset="1" timestamp="2026-04-20T20:12:18Z" id="623979839" lat="25.0451987" version="1" lon="121.5467442" user="OSMnx" /><node visible="true" uid="1" changeset="1" timestamp="2026-04-20T20:12:18Z" id="623979905" lat="25.0452039" version="1" lon="121.5460253" user="OSMnx"><tag k="highway" v="traffic_signals" /></node><node visible="true" uid="1" changeset="1" timestamp="2026-04-20T20:12:18Z" id="623979993" lat="25.0451549" version="1" lon="121.545576" user="OSMnx" /><node visible="true" uid="1" changeset="1" timestamp="2026-04-20T20:12:18Z" id="631821939" lat="25.0452925" version="1" lon="121.540856" user="OSMnx" /><node visible="true" uid="1" changeset="1" timestamp="2026-04-20T20:12:18Z" id="631821941" lat="25.0446957" version="1" lon="121.5408395" user="OSMnx" /><node visible="true" uid="1" changeset="1" timestamp="2026-04-20T20:12:18Z" id="631821946" lat="25.0453306" version="1" lon="121.5400631" user="OSMnx" /><node visible="true" uid="1" changeset="1" timestamp="2026-04-20T20:12:18Z" id="631821957" lat="25.0452735" version="1" lon="121.5411238" user="OSMnx" /><node visible="true" uid="1" changeset="1" timestamp="2026-04-20T20:12:18Z" id="631821960" lat="25.0453142" version="1" lon="121.5405098" user="OSMnx" /><node visible="true" uid="1" changeset="1" timestamp="2026-04-20T20:12:18Z" id="631821971" lat="25.0452611" version="1" lon="121.5414537" user="OSMnx" /><node visible="true" uid="1" changeset="1" timestamp="2026-04-20T20:12:18Z" id="631822000" lat="25.044852" version="1" lon="121.542853" user="OSMnx" /><node visible="true" uid="1" changeset="1" timestamp="2026-04-20T20:12:18Z" id="631822003" lat="25.0447925" version="1" lon="121.5423696" user="OSMnx"><tag k="highway" v="crossing" /></node><node visible="true" uid="1" changeset="1" timestamp="2026-04-20T20:12:18Z" id="2089915604" lat="25.0427011" version="1" lon="121.5430499" user="OSMnx" /><node visible="true" uid="1" changeset="1" timestamp="2026-04-20T20:12:18Z" id="2089915606" lat="25.0430961" version="1" lon="121.5430575" user="OSMnx" /><node visible="true" uid="1" changeset="1" timestamp="2026-04-20T20:12:18Z" id="2462427854" lat="25.0444623" version="1" lon="121.5407582" user="OSMnx" /><node visible="true" uid="1" changeset="1" timestamp="2026-04-20T20:12:18Z" id="2462427857" lat="25.0446958" version="1" lon="121.5409001" user="OSMnx" /><node visible="true" uid="1" changeset="1" timestamp="2026-04-20T20:12:18Z" id="2462876030" lat="25.0415805" version="1" lon="121.5416396" user="OSMnx"><tag k="highway" v="traffic_signals" /></node><node visible="true" uid="1" changeset="1" timestamp="2026-04-20T20:12:18Z" id="2574671663" lat="25.0384087" version="1" lon="121.5398435" user="OSMnx"><tag k="highway" v="traffic_signals" /></node><node visible="true" uid="1" changeset="1" timestamp="2026-04-20T20:12:18Z" id="3091222622" lat="25.0387332" version="1" lon="121.5437825" user="OSMnx"><tag k="highway" v="crossing" /></node><node visible="true" uid="1" changeset="1" timestamp="2026-04-20T20:12:18Z" id="3091510497" lat="25.0411401" version="1" lon="121.5438298" user="OSMnx"><tag k="highway" v="crossing" /></node><node visible="true" uid="1" changeset="1" timestamp="2026-04-20T20:12:18Z" id="3091510498" lat="25.0425198" version="1" lon="121.5438661" user="OSMnx" /><node visible="true" uid="1" changeset="1" timestamp="2026-04-20T20:12:18Z" id="3091510501" lat="25.0450936" version="1" lon="121.5449916" user="OSMnx" /><node visible="true" uid="1" changeset="1" timestamp="2026-04-20T20:12:18Z" id="3176779339" lat="25.044912" version="1" lon="121.5433754" user="OSMnx"><tag k="highway" v="crossing" /></node><node visible="true" uid="1" changeset="1" timestamp="2026-04-20T20:12:18Z" id="3178381528" lat="25.044511" version="1" lon="121.5396489" user="OSMnx" /><node visible="true" uid="1" changeset="1" timestamp="2026-04-20T20:12:18Z" id="3178388683" lat="25.0439021" version="1" lon="121.5400143" user="OSMnx"><tag k="highway" v="crossing" /></node><node visible="true" uid="1" changeset="1" timestamp="2026-04-20T20:12:18Z" id="3178400027" lat="25.0438851" version="1" lon="121.5396686" user="OSMnx"><tag k="highway" v="crossing" /></node><node visible="true" uid="1" changeset="1" timestamp="2026-04-20T20:12:18Z" id="3179389657" lat="25.0441184" version="1" lon="121.5406728" user="OSMnx"><tag k="highway" v="crossing" /></node><node visible="true" uid="1" changeset="1" timestamp="2026-04-20T20:12:18Z" id="3179389658" lat="25.0441134" version="1" lon="121.5412387" user="OSMnx"><tag k="highway" v="crossing" /></node><node visible="true" uid="1" changeset="1" timestamp="2026-04-20T20:12:18Z" id="3179421122" lat="25.0437642" version="1" lon="121.5416584" user="OSMnx"><tag k="highway" v="crossing" /></node><node visible="true" uid="1" changeset="1" timestamp="2026-04-20T20:12:18Z" id="3179421124" lat="25.0434571" version="1" lon="121.5416558" user="OSMnx"><tag k="highway" v="crossing" /></node><node visible="true" uid="1" changeset="1" timestamp="2026-04-20T20:12:18Z" id="3179421125" lat="25.0434507" version="1" lon="121.5423179" user="OSMnx"><tag k="highway" v="crossing" /></node><node visible="true" uid="1" changeset="1" timestamp="2026-04-20T20:12:18Z" id="3179520774" lat="25.0431466" version="1" lon="121.5416531" user="OSMnx"><tag k="highway" v="crossing" /></node><node visible="true" uid="1" changeset="1" timestamp="2026-04-20T20:12:18Z" id="3179586051" lat="25.042814" version="1" lon="121.5416477" user="OSMnx"><tag k="highway" v="crossing" /></node><node visible="true" uid="1" changeset="1" timestamp="2026-04-20T20:12:18Z" id="3179586054" lat="25.0428283" version="1" lon="121.5407048" user="OSMnx"><tag k="highway" v="crossing" /></node><node visible="true" uid="1" changeset="1" timestamp="2026-04-20T20:12:18Z" id="3179586964" lat="25.0425104" version="1" lon="121.5416477" user="OSMnx"><tag k="highway" v="crossing" /></node><node visible="true" uid="1" changeset="1" timestamp="2026-04-20T20:12:18Z" id="3179619582" lat="25.0419493" version="1" lon="121.543021" user="OSMnx" /><node visible="true" uid="1" changeset="1" timestamp="2026-04-20T20:12:18Z" id="3179627305" lat="25.0422007" version="1" lon="121.541645" user="OSMnx"><tag k="highway" v="crossing" /></node><node visible="true" uid="1" changeset="1" timestamp="2026-04-20T20:12:18Z" id="3179627306" lat="25.042189" version="1" lon="121.5429121" user="OSMnx"><tag k="highway" v="crossing" /></node><node visible="true" uid="1" changeset="1" timestamp="2026-04-20T20:12:18Z" id="3179725582" lat="25.0415996" version="1" lon="121.5397074" user="OSMnx"><tag k="highway" v="traffic_signals" /></node><node visible="true" uid="1" changeset="1" timestamp="2026-04-20T20:12:18Z" id="3179739456" lat="25.040687" version="1" lon="121.5416166" user="OSMnx" /><node visible="true" uid="1" changeset="1" timestamp="2026-04-20T20:12:18Z" id="3179739459" lat="25.0406748" version="1" lon="121.5422222" user="OSMnx"><tag k="highway" v="crossing" /></node><node visible="true" uid="1" changeset="1" timestamp="2026-04-20T20:12:18Z" id="3196968791" lat="25.0448944" version="1" lon="121.54512" user="OSMnx" /><node visible="true" uid="1" changeset="1" timestamp="2026-04-20T20:12:18Z" id="3196968792" lat="25.0449151" version="1" lon="121.5452967" user="OSMnx" /><node visible="true" uid="1" changeset="1" timestamp="2026-04-20T20:12:18Z" id="3196968793" lat="25.044971" version="1" lon="121.5469738" user="OSMnx" /><node visible="true" uid="1" changeset="1" timestamp="2026-04-20T20:12:18Z" id="3196968795" lat="25.0449815" version="1" lon="121.5468415" user="OSMnx" /><node visible="true" uid="1" changeset="1" timestamp="2026-04-20T20:12:18Z" id="3196968796" lat="25.0449956" version="1" lon="121.546571" user="OSMnx" /><node visible="true" uid="1" changeset="1" timestamp="2026-04-20T20:12:18Z" id="3196968797" lat="25.045" version="1" lon="121.5462252" user="OSMnx"><tag k="highway" v="traffic_signals" /></node><node visible="true" uid="1" changeset="1" timestamp="2026-04-20T20:12:18Z" id="3196968798" lat="25.0450116" version="1" lon="121.5469271" user="OSMnx" /><node visible="true" uid="1" changeset="1" timestamp="2026-04-20T20:12:18Z" id="3196968799" lat="25.0450144" version="1" lon="121.5468981" user="OSMnx" /><node visible="true" uid="1" changeset="1" timestamp="2026-04-20T20:12:18Z" id="3196968800" lat="25.0449838" version="1" lon="121.545219" user="OSMnx" /><node visible="true" uid="1" changeset="1" timestamp="2026-04-20T20:12:18Z" id="3196968801" lat="25.0449789" version="1" lon="121.5451849" user="OSMnx" /><node visible="true" uid="1" changeset="1" timestamp="2026-04-20T20:12:18Z" id="3196968803" lat="25.0450706" version="1" lon="121.5460873" user="OSMnx" /><node visible="true" uid="1" changeset="1" timestamp="2026-04-20T20:12:18Z" id="3196968804" lat="25.0450788" version="1" lon="121.5451726" user="OSMnx" /><node visible="true" uid="1" changeset="1" timestamp="2026-04-20T20:12:18Z" id="3196968805" lat="25.0450825" version="1" lon="121.5452036" user="OSMnx" /><node visible="true" uid="1" changeset="1" timestamp="2026-04-20T20:12:18Z" id="3196968806" lat="25.0451091" version="1" lon="121.5451236" user="OSMnx" /><node visible="true" uid="1" changeset="1" timestamp="2026-04-20T20:12:18Z" id="3196968807" lat="25.045159" version="1" lon="121.5469563" user="OSMnx" /><node visible="true" uid="1" changeset="1" timestamp="2026-04-20T20:12:18Z" id="3196968808" lat="25.04516" version="1" lon="121.5469274" user="OSMnx" /><node visible="true" uid="1" changeset="1" timestamp="2026-04-20T20:12:18Z" id="3196968809" lat="25.0451269" version="1" lon="121.545278" user="OSMnx" /><node visible="true" uid="1" changeset="1" timestamp="2026-04-20T20:12:18Z" id="3196968810" lat="25.0451759" version="1" lon="121.5470262" user="OSMnx" /><node visible="true" uid="1" changeset="1" timestamp="2026-04-20T20:12:18Z" id="3196968811" lat="25.0451901" version="1" lon="121.5468599" user="OSMnx" /><node visible="true" uid="1" changeset="1" timestamp="2026-04-20T20:12:18Z" id="3196998920" lat="25.0444672" version="1" lon="121.5405854" user="OSMnx" /><node visible="true" uid="1" changeset="1" timestamp="2026-04-20T20:12:18Z" id="3196998921" lat="25.0444588" version="1" lon="121.5411" user="OSMnx" /><node visible="true" uid="1" changeset="1" timestamp="2026-04-20T20:12:18Z" id="3196998922" lat="25.0444638" version="1" lon="121.5412399" user="OSMnx" /><node visible="true" uid="1" changeset="1" timestamp="2026-04-20T20:12:18Z" id="3196998923" lat="25.044481" version="1" lon="121.5411913" user="OSMnx" /><node visible="true" uid="1" changeset="1" timestamp="2026-04-20T20:12:18Z" id="3196998924" lat="25.0444807" version="1" lon="121.5411549" user="OSMnx" /><node visible="true" uid="1" changeset="1" timestamp="2026-04-20T20:12:18Z" id="3196998928" lat="25.0446677" version="1" lon="121.5431525" user="OSMnx" /><node visible="true" uid="1" changeset="1" timestamp="2026-04-20T20:12:18Z" id="3196998932" lat="25.044634" version="1" lon="121.5411638" user="OSMnx" /><node visible="true" uid="1" changeset="1" timestamp="2026-04-20T20:12:18Z" id="3196998933" lat="25.0446317" version="1" lon="121.5411932" user="OSMnx" /><node visible="true" uid="1" changeset="1" timestamp="2026-04-20T20:12:18Z" id="3196998934" lat="25.044736" version="1" lon="121.5432242" user="OSMnx" /><node visible="true" uid="1" changeset="1" timestamp="2026-04-20T20:12:18Z" id="3196998935" lat="25.044697" version="1" lon="121.5406789" user="OSMnx" /><node visible="true" uid="1" changeset="1" timestamp="2026-04-20T20:12:18Z" id="3196998936" lat="25.0446958" version="1" lon="121.5410722" user="OSMnx" /><node visible="true" uid="1" changeset="1" timestamp="2026-04-20T20:12:18Z" id="3196998937" lat="25.0447096" version="1" lon="121.5412823" user="OSMnx" /><node visible="true" uid="1" changeset="1" timestamp="2026-04-20T20:12:18Z" id="3196998938" lat="25.0448509" version="1" lon="121.5432106" user="OSMnx" /><node visible="true" uid="1" changeset="1" timestamp="2026-04-20T20:12:18Z" id="3196998939" lat="25.0448843" version="1" lon="121.5431428" user="OSMnx" /><node visible="true" uid="1" changeset="1" timestamp="2026-04-20T20:12:18Z" id="3299072820" lat="25.0444063" version="1" lon="121.5439236" user="OSMnx" /><node visible="true" uid="1" changeset="1" timestamp="2026-04-20T20:12:18Z" id="3566466565" lat="25.0383985" version="1" lon="121.5406514" user="OSMnx" /><node visible="true" uid="1" changeset="1" timestamp="2026-04-20T20:12:18Z" id="3655229251" lat="25.0409753" version="1" lon="121.5413116" user="OSMnx" /><node visible="true" uid="1" changeset="1" timestamp="2026-04-20T20:12:18Z" id="3655229252" lat="25.0411563" version="1" lon="121.5413146" user="OSMnx" /><node visible="true" uid="1" changeset="1" timestamp="2026-04-20T20:12:18Z" id="4202524167" lat="25.0415407" version="1" lon="121.5446678" user="OSMnx" /><node visible="true" uid="1" changeset="1" timestamp="2026-04-20T20:12:18Z" id="4210572479" lat="25.0449828" version="1" lon="121.545971" user="OSMnx" /><node visible="true" uid="1" changeset="1" timestamp="2026-04-20T20:12:18Z" id="4300984754" lat="25.0421875" version="1" lon="121.5462597" user="OSMnx"><tag k="highway" v="crossing" /></node><node visible="true" uid="1" changeset="1" timestamp="2026-04-20T20:12:18Z" id="4300984755" lat="25.0426591" version="1" lon="121.5462463" user="OSMnx"><tag k="highway" v="crossing" /></node><node visible="true" uid="1" changeset="1" timestamp="2026-04-20T20:12:18Z" id="4300984762" lat="25.0435825" version="1" lon="121.5462412" user="OSMnx"><tag k="highway" v="crossing" /></node><node visible="true" uid="1" changeset="1" timestamp="2026-04-20T20:12:18Z" id="4300984777" lat="25.0444444" version="1" lon="121.5462954" user="OSMnx"><tag k="highway" v="crossing" /></node><node visible="true" uid="1" changeset="1" timestamp="2026-04-20T20:12:18Z" id="4300984784" lat="25.0448428" version="1" lon="121.5408467" user="OSMnx"><tag k="highway" v="crossing" /></node><node visible="true" uid="1" changeset="1" timestamp="2026-04-20T20:12:18Z" id="4300984785" lat="25.0450034" version="1" lon="121.5463078" user="OSMnx"><tag k="highway" v="crossing" /></node><node visible="true" uid="1" changeset="1" timestamp="2026-04-20T20:12:18Z" id="4401555253" lat="25.044089" version="1" lon="121.5430781" user="OSMnx" /><node visible="true" uid="1" changeset="1" timestamp="2026-04-20T20:12:18Z" id="4408417173" lat="25.0440953" version="1" lon="121.5401556" user="OSMnx" /><node visible="true" uid="1" changeset="1" timestamp="2026-04-20T20:12:18Z" id="4408417178" lat="25.0444845" version="1" lon="121.5401924" user="OSMnx" /><node visible="true" uid="1" changeset="1" timestamp="2026-04-20T20:12:18Z" id="4418785148" lat="25.0452056" version="1" lon="121.5464816" user="OSMnx" /><node visible="true" uid="1" changeset="1" timestamp="2026-04-20T20:12:18Z" id="4435537542" lat="25.0406473" version="1" lon="121.5435949" user="OSMnx" /><node visible="true" uid="1" changeset="1" timestamp="2026-04-20T20:12:18Z" id="4435537543" lat="25.0447253" version="1" lon="121.5436721" user="OSMnx" /><node visible="true" uid="1" changeset="1" timestamp="2026-04-20T20:12:18Z" id="4435537545" lat="25.0449479" version="1" lon="121.543678" user="OSMnx" /><node visible="true" uid="1" changeset="1" timestamp="2026-04-20T20:12:18Z" id="4436527893" lat="25.0406494" version="1" lon="121.5435828" user="OSMnx"><tag k="highway" v="crossing" /></node><node visible="true" uid="1" changeset="1" timestamp="2026-04-20T20:12:18Z" id="4436527894" lat="25.0447168" version="1" lon="121.5435931" user="OSMnx"><tag k="highway" v="crossing" /></node><node visible="true" uid="1" changeset="1" timestamp="2026-04-20T20:12:18Z" id="4436527895" lat="25.0431023" version="1" lon="121.5436306" user="OSMnx"><tag k="highway" v="crossing" /></node><node visible="true" uid="1" changeset="1" timestamp="2026-04-20T20:12:18Z" id="4487263635" lat="25.0398239" version="1" lon="121.5435739" user="OSMnx" /><node visible="true" uid="1" changeset="1" timestamp="2026-04-20T20:12:18Z" id="4487263636" lat="25.0398244" version="1" lon="121.5435501" user="OSMnx"><tag k="highway" v="crossing" /></node><node visible="true" uid="1" changeset="1" timestamp="2026-04-20T20:12:18Z" id="4494088894" lat="25.0384613" version="1" lon="121.5412693" user="OSMnx"><tag k="highway" v="crossing" /></node><node visible="true" uid="1" changeset="1" timestamp="2026-04-20T20:12:18Z" id="4494088909" lat="25.0384161" version="1" lon="121.5397082" user="OSMnx"><tag k="highway" v="crossing" /></node><node visible="true" uid="1" changeset="1" timestamp="2026-04-20T20:12:18Z" id="4494088916" lat="25.0383895" version="1" lon="121.5410071" user="OSMnx"><tag k="highway" v="crossing" /></node><node visible="true" uid="1" changeset="1" timestamp="2026-04-20T20:12:18Z" id="4494235148" lat="25.0415809" version="1" lon="121.5415952" user="OSMnx"><tag k="highway" v="crossing" /></node><node visible="true" uid="1" changeset="1" timestamp="2026-04-20T20:12:18Z" id="4494235149" lat="25.0415024" version="1" lon="121.5413204" user="OSMnx"><tag k="highway" v="crossing" /></node><node visible="true" uid="1" changeset="1" timestamp="2026-04-20T20:12:18Z" id="4494235152" lat="25.0418138" version="1" lon="121.5416417" user="OSMnx"><tag k="highway" v="crossing" /></node><node visible="true" uid="1" changeset="1" timestamp="2026-04-20T20:12:18Z" id="4494235153" lat="25.0415792" version="1" lon="121.5417611" user="OSMnx"><tag k="highway" v="crossing" /></node><node visible="true" uid="1" changeset="1" timestamp="2026-04-20T20:12:18Z" id="4494235154" lat="25.0417232" version="1" lon="121.5415846" user="OSMnx"><tag k="highway" v="crossing" /></node><node visible="true" uid="1" changeset="1" timestamp="2026-04-20T20:12:18Z" id="4494235155" lat="25.0417212" version="1" lon="121.5417653" user="OSMnx"><tag k="highway" v="crossing" /></node><node visible="true" uid="1" changeset="1" timestamp="2026-04-20T20:12:18Z" id="4504820291" lat="25.0416782" version="1" lon="121.5439715" user="OSMnx"><tag k="highway" v="crossing" /></node><node visible="true" uid="1" changeset="1" timestamp="2026-04-20T20:12:18Z" id="4504820295" lat="25.0426889" version="1" lon="121.5439804" user="OSMnx"><tag k="highway" v="crossing" /></node><node visible="true" uid="1" changeset="1" timestamp="2026-04-20T20:12:18Z" id="4504820298" lat="25.0436343" version="1" lon="121.544008" user="OSMnx"><tag k="highway" v="crossing" /></node><node visible="true" uid="1" changeset="1" timestamp="2026-04-20T20:12:18Z" id="4504820299" lat="25.0437184" version="1" lon="121.5437619" user="OSMnx"><tag k="highway" v="crossing" /></node><node visible="true" uid="1" changeset="1" timestamp="2026-04-20T20:12:18Z" id="4504820301" lat="25.0436929" version="1" lon="121.5439052" user="OSMnx"><tag k="highway" v="crossing" /></node><node visible="true" uid="1" changeset="1" timestamp="2026-04-20T20:12:18Z" id="4510462195" lat="25.0415533" version="1" lon="121.5439714" user="OSMnx"><tag k="highway" v="crossing" /></node><node visible="true" uid="1" changeset="1" timestamp="2026-04-20T20:12:18Z" id="4510564530" lat="25.0418372" version="1" lon="121.5397101" user="OSMnx"><tag k="highway" v="crossing" /></node><node visible="true" uid="1" changeset="1" timestamp="2026-04-20T20:12:18Z" id="4510564531" lat="25.0418251" version="1" lon="121.5406927" user="OSMnx"><tag k="highway" v="crossing" /></node><node visible="true" uid="1" changeset="1" timestamp="2026-04-20T20:12:18Z" id="4510564532" lat="25.0417993" version="1" lon="121.5430175" user="OSMnx"><tag k="highway" v="crossing" /></node><node visible="true" uid="1" changeset="1" timestamp="2026-04-20T20:12:18Z" id="4510564548" lat="25.0413934" version="1" lon="121.5461148" user="OSMnx"><tag k="highway" v="crossing" /></node><node visible="true" uid="1" changeset="1" timestamp="2026-04-20T20:12:18Z" id="4510564553" lat="25.0413727" version="1" lon="121.5437123" user="OSMnx"><tag k="highway" v="crossing" /></node><node visible="true" uid="1" changeset="1" timestamp="2026-04-20T20:12:18Z" id="4510564554" lat="25.0414872" version="1" lon="121.542473" user="OSMnx"><tag k="highway" v="crossing" /></node><node visible="true" uid="1" changeset="1" timestamp="2026-04-20T20:12:18Z" id="4510564555" lat="25.0414034" version="1" lon="121.5413188" user="OSMnx" /><node visible="true" uid="1" changeset="1" timestamp="2026-04-20T20:12:18Z" id="4525683906" lat="25.0443924" version="1" lon="121.5406772" user="OSMnx"><tag k="highway" v="crossing" /></node><node visible="true" uid="1" changeset="1" timestamp="2026-04-20T20:12:18Z" id="4525683908" lat="25.0444783" version="1" lon="121.5421808" user="OSMnx"><tag k="highway" v="crossing" /></node><node visible="true" uid="1" changeset="1" timestamp="2026-04-20T20:12:18Z" id="4525683909" lat="25.0445079" version="1" lon="121.5424431" user="OSMnx"><tag k="highway" v="crossing" /></node><node visible="true" uid="1" changeset="1" timestamp="2026-04-20T20:12:18Z" id="4525683911" lat="25.0446452" version="1" lon="121.5437839" user="OSMnx"><tag k="highway" v="crossing" /></node><node visible="true" uid="1" changeset="1" timestamp="2026-04-20T20:12:18Z" id="4525683912" lat="25.0446521" version="1" lon="121.5439303" user="OSMnx"><tag k="highway" v="crossing" /></node><node visible="true" uid="1" changeset="1" timestamp="2026-04-20T20:12:18Z" id="4525683916" lat="25.0449204" version="1" lon="121.5462215" user="OSMnx"><tag k="highway" v="crossing" /></node><node visible="true" uid="1" changeset="1" timestamp="2026-04-20T20:12:18Z" id="4525683919" lat="25.0448495" version="1" lon="121.5472809" user="OSMnx"><tag k="highway" v="crossing" /></node><node visible="true" uid="1" changeset="1" timestamp="2026-04-20T20:12:18Z" id="4596732502" lat="25.0384084" version="1" lon="121.5401023" user="OSMnx" /><node visible="true" uid="1" changeset="1" timestamp="2026-04-20T20:12:18Z" id="5045805266" lat="25.0386114" version="1" lon="121.5412719" user="OSMnx" /><node visible="true" uid="1" changeset="1" timestamp="2026-04-20T20:12:18Z" id="5296993478" lat="25.0429024" version="1" lon="121.5436281" user="OSMnx"><tag k="highway" v="crossing" /></node><node visible="true" uid="1" changeset="1" timestamp="2026-04-20T20:12:18Z" id="5296993479" lat="25.0418438" version="1" lon="121.5438436" user="OSMnx"><tag k="highway" v="crossing" /></node><node visible="true" uid="1" changeset="1" timestamp="2026-04-20T20:12:18Z" id="5296993480" lat="25.0413723" version="1" lon="121.5438336" user="OSMnx"><tag k="highway" v="crossing" /></node><node visible="true" uid="1" changeset="1" timestamp="2026-04-20T20:12:18Z" id="5296993481" lat="25.0442958" version="1" lon="121.5436587" user="OSMnx"><tag k="highway" v="crossing" /></node><node visible="true" uid="1" changeset="1" timestamp="2026-04-20T20:12:18Z" id="5296993482" lat="25.0442987" version="1" lon="121.5436767" user="OSMnx" /><node visible="true" uid="1" changeset="1" timestamp="2026-04-20T20:12:18Z" id="5296993490" lat="25.0417451" version="1" lon="121.5396379" user="OSMnx"><tag k="highway" v="crossing" /></node><node visible="true" uid="1" changeset="1" timestamp="2026-04-20T20:12:18Z" id="5296993491" lat="25.0416003" version="1" lon="121.5396354" user="OSMnx"><tag k="highway" v="crossing" /></node><node visible="true" uid="1" changeset="1" timestamp="2026-04-20T20:12:18Z" id="5296993494" lat="25.0415999" version="1" lon="121.5397947" user="OSMnx"><tag k="highway" v="crossing" /></node><node visible="true" uid="1" changeset="1" timestamp="2026-04-20T20:12:18Z" id="5296993495" lat="25.0417426" version="1" lon="121.5397967" user="OSMnx"><tag k="highway" v="crossing" /></node><node visible="true" uid="1" changeset="1" timestamp="2026-04-20T20:12:18Z" id="5296993497" lat="25.0418448" version="1" lon="121.5437125" user="OSMnx"><tag k="highway" v="crossing" /></node><node visible="true" uid="1" changeset="1" timestamp="2026-04-20T20:12:18Z" id="5296993501" lat="25.0416959" version="1" lon="121.5435485" user="OSMnx"><tag k="highway" v="crossing" /></node><node visible="true" uid="1" changeset="1" timestamp="2026-04-20T20:12:18Z" id="5296993502" lat="25.0415598" version="1" lon="121.543546" user="OSMnx"><tag k="highway" v="crossing" /></node><node visible="true" uid="1" changeset="1" timestamp="2026-04-20T20:12:18Z" id="5382973788" lat="25.0417393" version="1" lon="121.5461709" user="OSMnx"><tag k="highway" v="crossing" /></node><node visible="true" uid="1" changeset="1" timestamp="2026-04-20T20:12:18Z" id="5382973791" lat="25.0416518" version="1" lon="121.5462584" user="OSMnx"><tag k="highway" v="crossing" /></node><node visible="true" uid="1" changeset="1" timestamp="2026-04-20T20:12:18Z" id="5382973795" lat="25.041655" version="1" lon="121.5460265" user="OSMnx"><tag k="highway" v="crossing" /></node><node visible="true" uid="1" changeset="1" timestamp="2026-04-20T20:12:18Z" id="5382973796" lat="25.0415238" version="1" lon="121.5460347" user="OSMnx"><tag k="highway" v="crossing" /></node><node visible="true" uid="1" changeset="1" timestamp="2026-04-20T20:12:18Z" id="5621025627" lat="25.0415166" version="1" lon="121.5462547" user="OSMnx"><tag k="highway" v="crossing" /></node><node visible="true" uid="1" changeset="1" timestamp="2026-04-20T20:12:18Z" id="5695162336" lat="25.0422993" version="1" lon="121.543721" user="OSMnx" /><node visible="true" uid="1" changeset="1" timestamp="2026-04-20T20:12:18Z" id="5695162337" lat="25.0437567" version="1" lon="121.5437634" user="OSMnx" /><node visible="true" uid="1" changeset="1" timestamp="2026-04-20T20:12:18Z" id="5695162338" lat="25.0428531" version="1" lon="121.5438773" user="OSMnx" /><node visible="true" uid="1" changeset="1" timestamp="2026-04-20T20:12:18Z" id="6252193075" lat="25.0448381" version="1" lon="121.5427533" user="OSMnx" /><node visible="true" uid="1" changeset="1" timestamp="2026-04-20T20:12:18Z" id="6253384639" lat="25.0426806" version="1" lon="121.5453342" user="OSMnx" /><node visible="true" uid="1" changeset="1" timestamp="2026-04-20T20:12:18Z" id="6257336101" lat="25.039886" version="1" lon="121.5438051" user="OSMnx"><tag k="highway" v="crossing" /></node><node visible="true" uid="1" changeset="1" timestamp="2026-04-20T20:12:18Z" id="6257336102" lat="25.0398877" version="1" lon="121.5436873" user="OSMnx"><tag k="highway" v="crossing" /></node><node visible="true" uid="1" changeset="1" timestamp="2026-04-20T20:12:18Z" id="6257338686" lat="25.0382481" version="1" lon="121.5437667" user="OSMnx"><tag k="highway" v="crossing" /></node><node visible="true" uid="1" changeset="1" timestamp="2026-04-20T20:12:18Z" id="6257338687" lat="25.0382546" version="1" lon="121.5436336" user="OSMnx"><tag k="highway" v="crossing" /></node><node visible="true" uid="1" changeset="1" timestamp="2026-04-20T20:12:18Z" id="6257338969" lat="25.0449334" version="1" lon="121.5435556" user="OSMnx"><tag k="highway" v="crossing" /></node><node visible="true" uid="1" changeset="1" timestamp="2026-04-20T20:12:18Z" id="6257339206" lat="25.0427933" version="1" lon="121.5437347" user="OSMnx" /><node visible="true" uid="1" changeset="1" timestamp="2026-04-20T20:12:18Z" id="6257339214" lat="25.0442522" version="1" lon="121.5435209" user="OSMnx" /><node visible="true" uid="1" changeset="1" timestamp="2026-04-20T20:12:18Z" id="6257339215" lat="25.0441118" version="1" lon="121.5431461" user="OSMnx" /><node visible="true" uid="1" changeset="1" timestamp="2026-04-20T20:12:18Z" id="6257339224" lat="25.043813" version="1" lon="121.5422074" user="OSMnx" /><node visible="true" uid="1" changeset="1" timestamp="2026-04-20T20:12:18Z" id="6261009024" lat="25.0436994" version="1" lon="121.5428343" user="OSMnx" /><node visible="true" uid="1" changeset="1" timestamp="2026-04-20T20:12:18Z" id="6261009025" lat="25.0436471" version="1" lon="121.5429269" user="OSMnx" /><node visible="true" uid="1" changeset="1" timestamp="2026-04-20T20:12:18Z" id="6261442752" lat="25.0439934" version="1" lon="121.5416092" user="OSMnx" /><node visible="true" uid="1" changeset="1" timestamp="2026-04-20T20:12:18Z" id="6261442753" lat="25.0440596" version="1" lon="121.5416099" user="OSMnx" /><node visible="true" uid="1" changeset="1" timestamp="2026-04-20T20:12:18Z" id="6261452236" lat="25.0435824" version="1" lon="121.540714" user="OSMnx"><tag k="highway" v="crossing" /></node><node visible="true" uid="1" changeset="1" timestamp="2026-04-20T20:12:18Z" id="6261452237" lat="25.0435913" version="1" lon="121.5397309" user="OSMnx"><tag k="highway" v="crossing" /></node><node visible="true" uid="1" changeset="1" timestamp="2026-04-20T20:12:18Z" id="6354698695" lat="25.0430608" version="1" lon="121.5430579" user="OSMnx"><tag k="highway" v="crossing" /></node><node visible="true" uid="1" changeset="1" timestamp="2026-04-20T20:12:18Z" id="6354698698" lat="25.0431146" version="1" lon="121.5424917" user="OSMnx"><tag k="highway" v="crossing" /></node><node visible="true" uid="1" changeset="1" timestamp="2026-04-20T20:12:18Z" id="6354698710" lat="25.0450304" version="1" lon="121.5439396" user="OSMnx"><tag k="highway" v="crossing" /></node><node visible="true" uid="1" changeset="1" timestamp="2026-04-20T20:12:18Z" id="6354698711" lat="25.0450231" version="1" lon="121.5437968" user="OSMnx"><tag k="highway" v="crossing" /></node><node visible="true" uid="1" changeset="1" timestamp="2026-04-20T20:12:18Z" id="6397117059" lat="25.0447678" version="1" lon="121.5440366" user="OSMnx"><tag k="highway" v="crossing" /></node><node visible="true" uid="1" changeset="1" timestamp="2026-04-20T20:12:18Z" id="6397117060" lat="25.0449901" version="1" lon="121.5440408" user="OSMnx"><tag k="highway" v="crossing" /></node><node visible="true" uid="1" changeset="1" timestamp="2026-04-20T20:12:18Z" id="6397118896" lat="25.0416296" version="1" lon="121.547281" user="OSMnx"><tag k="highway" v="crossing" /></node><node visible="true" uid="1" changeset="1" timestamp="2026-04-20T20:12:18Z" id="6397118897" lat="25.0414965" version="1" lon="121.5472795" user="OSMnx"><tag k="highway" v="crossing" /></node><node visible="true" uid="1" changeset="1" timestamp="2026-04-20T20:12:18Z" id="6691390582" lat="25.0397359" version="1" lon="121.5438022" user="OSMnx"><tag k="highway" v="crossing" /></node><node visible="true" uid="1" changeset="1" timestamp="2026-04-20T20:12:18Z" id="6691390583" lat="25.0397441" version="1" lon="121.543684" user="OSMnx"><tag k="highway" v="crossing" /></node><node visible="true" uid="1" changeset="1" timestamp="2026-04-20T20:12:18Z" id="7130801999" lat="25.041514" version="1" lon="121.5463481" user="OSMnx" /><node visible="true" uid="1" changeset="1" timestamp="2026-04-20T20:12:18Z" id="7645272277" lat="25.0406746" version="1" lon="121.5422639" user="OSMnx" /><node visible="true" uid="1" changeset="1" timestamp="2026-04-20T20:12:18Z" id="7645272279" lat="25.040687" version="1" lon="121.5415974" user="OSMnx" /><node visible="true" uid="1" changeset="1" timestamp="2026-04-20T20:12:18Z" id="7700422423" lat="25.0444264" version="1" lon="121.5470856" user="OSMnx" /><node visible="true" uid="1" changeset="1" timestamp="2026-04-20T20:12:18Z" id="7700422424" lat="25.0430411" version="1" lon="121.5424884" user="OSMnx" /><node visible="true" uid="1" changeset="1" timestamp="2026-04-20T20:12:18Z" id="7721115264" lat="25.0416326" version="1" lon="121.5471402" user="OSMnx"><tag k="highway" v="crossing" /></node><node visible="true" uid="1" changeset="1" timestamp="2026-04-20T20:12:18Z" id="7721115265" lat="25.0414998" version="1" lon="121.5471396" user="OSMnx"><tag k="highway" v="crossing" /></node><node visible="true" uid="1" changeset="1" timestamp="2026-04-20T20:12:18Z" id="7756520648" lat="25.041068" version="1" lon="121.5413133" user="OSMnx"><tag k="highway" v="crossing" /></node><node visible="true" uid="1" changeset="1" timestamp="2026-04-20T20:12:18Z" id="7782558669" lat="25.0426644" version="1" lon="121.5460741" user="OSMnx"><tag k="highway" v="crossing" /></node><node visible="true" uid="1" changeset="1" timestamp="2026-04-20T20:12:18Z" id="7782558670" lat="25.042561" version="1" lon="121.5461668" user="OSMnx"><tag k="highway" v="crossing" /></node><node visible="true" uid="1" changeset="1" timestamp="2026-04-20T20:12:18Z" id="7782558671" lat="25.0426931" version="1" lon="121.5461697" user="OSMnx"><tag k="highway" v="crossing" /></node><node visible="true" uid="1" changeset="1" timestamp="2026-04-20T20:12:18Z" id="7782558783" lat="25.0431167" version="1" lon="121.5434337" user="OSMnx"><tag k="highway" v="crossing" /></node><node visible="true" uid="1" changeset="1" timestamp="2026-04-20T20:12:18Z" id="7782558785" lat="25.0438395" version="1" lon="121.5422622" user="OSMnx"><tag k="highway" v="crossing" /></node><node visible="true" uid="1" changeset="1" timestamp="2026-04-20T20:12:18Z" id="7782558786" lat="25.0440537" version="1" lon="121.542235" user="OSMnx"><tag k="highway" v="crossing" /></node><node visible="true" uid="1" changeset="1" timestamp="2026-04-20T20:12:18Z" id="7782558787" lat="25.0440816" version="1" lon="121.5416224" user="OSMnx"><tag k="highway" v="crossing" /></node><node visible="true" uid="1" changeset="1" timestamp="2026-04-20T20:12:18Z" id="7782558788" lat="25.0438713" version="1" lon="121.5416593" user="OSMnx"><tag k="highway" v="crossing" /></node><node visible="true" uid="1" changeset="1" timestamp="2026-04-20T20:12:18Z" id="7782558789" lat="25.0451876" version="1" lon="121.5455761" user="OSMnx"><tag k="highway" v="crossing" /></node><node visible="true" uid="1" changeset="1" timestamp="2026-04-20T20:12:18Z" id="7782558790" lat="25.0448291" version="1" lon="121.5423581" user="OSMnx"><tag k="highway" v="crossing" /></node><node visible="true" uid="1" changeset="1" timestamp="2026-04-20T20:12:18Z" id="7782558791" lat="25.0452251" version="1" lon="121.5467442" user="OSMnx"><tag k="highway" v="crossing" /></node><node visible="true" uid="1" changeset="1" timestamp="2026-04-20T20:12:18Z" id="7782558792" lat="25.0452412" version="1" lon="121.5460246" user="OSMnx"><tag k="highway" v="crossing" /></node><node visible="true" uid="1" changeset="1" timestamp="2026-04-20T20:12:18Z" id="9321537867" lat="25.0415859" version="1" lon="121.5410857" user="OSMnx" /><node visible="true" uid="1" changeset="1" timestamp="2026-04-20T20:12:18Z" id="9321537868" lat="25.0417116" version="1" lon="121.54262" user="OSMnx" /><node visible="true" uid="1" changeset="1" timestamp="2026-04-20T20:12:18Z" id="9321537869" lat="25.0407646" version="1" lon="121.5437059" user="OSMnx" /><node visible="true" uid="1" changeset="1" timestamp="2026-04-20T20:12:18Z" id="9321537871" lat="25.043095" version="1" lon="121.5433207" user="OSMnx"><tag k="highway" v="crossing" /></node><node visible="true" uid="1" changeset="1" timestamp="2026-04-20T20:12:18Z" id="9321537873" lat="25.0416426" version="1" lon="121.5466372" user="OSMnx" /><node visible="true" uid="1" changeset="1" timestamp="2026-04-20T20:12:18Z" id="9526323819" lat="25.0406921" version="1" lon="121.5413584" user="OSMnx"><tag k="highway" v="crossing" /></node><node visible="true" uid="1" changeset="1" timestamp="2026-04-20T20:12:18Z" id="9526323822" lat="25.0404127" version="1" lon="121.5413015" user="OSMnx"><tag k="highway" v="crossing" /></node><node visible="true" uid="1" changeset="1" timestamp="2026-04-20T20:12:18Z" id="9526478136" lat="25.040662" version="1" lon="121.5428616" user="OSMnx" /><node visible="true" uid="1" changeset="1" timestamp="2026-04-20T20:12:18Z" id="9599479062" lat="25.0398478" version="1" lon="121.5460812" user="OSMnx"><tag k="highway" v="crossing" /></node><node visible="true" uid="1" changeset="1" timestamp="2026-04-20T20:12:18Z" id="9599479065" lat="25.0397216" version="1" lon="121.5460785" user="OSMnx"><tag k="highway" v="crossing" /></node><node visible="true" uid="1" changeset="1" timestamp="2026-04-20T20:12:18Z" id="9599479070" lat="25.0390398" version="1" lon="121.5460637" user="OSMnx"><tag k="highway" v="crossing" /></node><node visible="true" uid="1" changeset="1" timestamp="2026-04-20T20:12:18Z" id="9599479073" lat="25.0389516" version="1" lon="121.5460618" user="OSMnx"><tag k="highway" v="crossing" /></node><node visible="true" uid="1" changeset="1" timestamp="2026-04-20T20:12:18Z" id="9628907779" lat="25.0451037" version="1" lon="121.545078" user="OSMnx" /><node visible="true" uid="1" changeset="1" timestamp="2026-04-20T20:12:18Z" id="12237583037" lat="25.0453202" version="1" lon="121.5403468" user="OSMnx" /><node visible="true" uid="1" changeset="1" timestamp="2026-04-20T20:12:18Z" id="12328347516" lat="25.04398" version="1" lon="121.5426422" user="OSMnx" /><node visible="true" uid="1" changeset="1" timestamp="2026-04-20T20:12:18Z" id="12328347517" lat="25.0442904" version="1" lon="121.5425476" user="OSMnx" /><node visible="true" uid="1" changeset="1" timestamp="2026-04-20T20:12:18Z" id="12328347519" lat="25.0440014" version="1" lon="121.5427261" user="OSMnx" /><node visible="true" uid="1" changeset="1" timestamp="2026-04-20T20:12:18Z" id="12328793109" lat="25.0447086" version="1" lon="121.5403293" user="OSMnx" /><node visible="true" uid="1" changeset="1" timestamp="2026-04-20T20:12:18Z" id="12328793110" lat="25.0453212" version="1" lon="121.5403201" user="OSMnx" /><node visible="true" uid="1" changeset="1" timestamp="2026-04-20T20:12:18Z" id="12345583578" lat="25.043983" version="1" lon="121.5425228" user="OSMnx" /><node visible="true" uid="1" changeset="1" timestamp="2026-04-20T20:12:18Z" id="12872938907" lat="25.0440188" version="1" lon="121.5422829" user="OSMnx" /><node visible="true" uid="1" changeset="1" timestamp="2026-04-20T20:12:18Z" id="13671758066" lat="25.0421658" version="1" lon="121.5473478" user="OSMnx" /><node visible="true" uid="1" changeset="1" timestamp="2026-04-20T20:12:18Z" id="13671758067" lat="25.0416283" version="1" lon="121.5473417" user="OSMnx" /><node visible="true" uid="1" changeset="1" timestamp="2026-04-20T20:12:18Z" id="13671758068" lat="25.041495" version="1" lon="121.5473385" user="OSMnx" /><way visible="true" uid="1" changeset="1" id="48768115" version="1" timestamp="2026-04-20T20:12:18Z" user="OSMnx"><nd ref="618866456" /><nd ref="618866467" /><tag k="oneway" v="no" /><tag k="name" v="敦化南路一段236巷" /><tag k="highway" v="residential" /></way><way visible="true" uid="1" changeset="1" id="48793354" version="1" timestamp="2026-04-20T20:12:18Z" user="OSMnx"><nd ref="619120261" /><nd ref="4300984777" /><nd ref="7700422423" /><nd ref="619120262" /><tag k="oneway" v="yes" /><tag k="name" v="大安路一段19巷" /><tag k="highway" v="residential" /></way><way visible="true" uid="1" changeset="1" id="48793371" version="1" timestamp="2026-04-20T20:12:18Z" user="OSMnx"><nd ref="619120359" /><nd ref="4504820298" /><nd ref="619120331" /><tag k="oneway" v="yes" /><tag k="name" v="復興南路一段107巷" /><tag k="highway" v="residential" /></way><way visible="true" uid="1" changeset="1" id="48793376" version="1" timestamp="2026-04-20T20:12:18Z" user="OSMnx"><nd ref="619120418" /><nd ref="4525683919" /><nd ref="619120262" /><tag k="oneway" v="yes" /><tag k="name" v="市民大道四段68巷" /><tag k="highway" v="residential" /></way><way visible="true" uid="1" changeset="1" id="48793387" version="1" timestamp="2026-04-20T20:12:18Z" user="OSMnx"><nd ref="619120409" /><nd ref="4300984754" /><nd ref="619120420" /><nd ref="13671758066" /><tag k="oneway" v="yes" /><tag k="name" v="大安路一段75巷" /><tag k="highway" v="residential" /></way><way visible="true" uid="1" changeset="1" id="48794877" version="1" timestamp="2026-04-20T20:12:18Z" user="OSMnx"><nd ref="619136853" /><nd ref="9526323819" /><nd ref="7645272279" /><nd ref="3179739456" /><nd ref="619136854" /><nd ref="3179739459" /><nd ref="7645272277" /><nd ref="619136855" /><nd ref="9526478136" /><nd ref="619136856" /><nd ref="4436527893" /><nd ref="4435537542" /><nd ref="619136857" /><tag k="oneway" v="no" /><tag k="name" v="忠孝東路三段248巷13弄" /><tag k="highway" v="residential" /></way><way visible="true" uid="1" changeset="1" id="48794878" version="1" timestamp="2026-04-20T20:12:18Z" user="OSMnx"><nd ref="619136859" /><nd ref="4510564554" /><nd ref="619136858" /><tag k="oneway" v="yes" /><tag k="name" v="忠孝東路三段276巷" /><tag k="highway" v="residential" /></way><way visible="true" uid="1" changeset="1" id="48794882" version="1" timestamp="2026-04-20T20:12:18Z" user="OSMnx"><nd ref="619136868" /><nd ref="4494235149" /><nd ref="4510564555" /><nd ref="3655229252" /><nd ref="619136860" /><nd ref="7756520648" /><nd ref="3655229251" /><nd ref="619136853" /><nd ref="9526323822" /><nd ref="619136869" /><nd ref="619136870" /><nd ref="5045805266" /><nd ref="4494088894" /><nd ref="619136871" /><tag k="oneway" v="no" /><tag k="name" v="忠孝東路三段248巷" /><tag k="highway" v="residential" /></way><way visible="true" uid="1" changeset="1" id="48794885" version="1" timestamp="2026-04-20T20:12:18Z" user="OSMnx"><nd ref="619136877" /><nd ref="619136878" /><nd ref="4487263636" /><nd ref="4487263635" /><nd ref="619136879" /><nd ref="618866230" /><tag k="oneway" v="no" /><tag k="name" v="仁愛路三段123巷13弄" /><tag k="highway" v="residential" /></way><way visible="true" uid="1" changeset="1" id="48794891" version="1" timestamp="2026-04-20T20:12:18Z" user="OSMnx"><nd ref="619136854" /><nd ref="619136851" /><nd ref="619136877" /><nd ref="619136875" /><nd ref="619136872" /><tag k="oneway" v="no" /><tag k="name" v="仁愛路三段123巷" /><tag k="highway" v="residential" /></way><way visible="true" uid="1" changeset="1" id="48794898" version="1" timestamp="2026-04-20T20:12:18Z" user="OSMnx"><nd ref="13671758067" /><nd ref="6397118896" /><nd ref="619120421" /><tag k="oneway" v="yes" /><tag k="ref" v="5" /><tag k="lanes" v="4" /><tag k="name" v="忠孝東路四段" /><tag k="highway" v="primary" /></way><way visible="true" uid="1" changeset="1" id="49073240" version="1" timestamp="2026-04-20T20:12:18Z" user="OSMnx"><nd ref="622617671" /><nd ref="4525683906" /><nd ref="3179389657" /><tag k="oneway" v="no" /><tag k="highway" v="residential" /></way><way visible="true" uid="1" changeset="1" id="49073241" version="1" timestamp="2026-04-20T20:12:18Z" user="OSMnx"><nd ref="622617687" /><nd ref="4525683909" /><tag k="oneway" v="yes" /><tag k="name" v="安東街" /><tag k="highway" v="residential" /></way><way visible="true" uid="1" changeset="1" id="49073242" version="1" timestamp="2026-04-20T20:12:18Z" user="OSMnx"><nd ref="622617691" /><nd ref="6354698698" /><nd ref="2089915606" /><nd ref="9321537871" /><nd ref="622617663" /><tag k="oneway" v="no" /><tag k="name" v="復興南路一段126巷" /><tag k="highway" v="residential" /></way><way visible="true" uid="1" changeset="1" id="49073260" version="1" timestamp="2026-04-20T20:12:18Z" user="OSMnx"><nd ref="622617959" /><nd ref="4510564531" /><nd ref="622617859" /><nd ref="622617935" /><nd ref="622617898" /><nd ref="622617869" /><nd ref="622617778" /><nd ref="3179586054" /><nd ref="622617782" /><nd ref="622617734" /><nd ref="622617795" /><nd ref="6261452236" /><nd ref="622617748" /><nd ref="622617757" /><nd ref="622617634" /><tag k="oneway" v="yes" /><tag k="name" v="忠孝東路三段237巷" /><tag k="highway" v="residential" /></way><way visible="true" uid="1" changeset="1" id="49073266" version="1" timestamp="2026-04-20T20:12:18Z" user="OSMnx"><nd ref="618955703" /><nd ref="6354698710" /><tag k="oneway" v="yes" /><tag k="lanes" v="4" /><tag k="name" v="復興南路一段" /><tag k="maxspeed" v="50" /><tag k="highway" v="secondary" /></way><way visible="true" uid="1" changeset="1" id="49073268" version="1" timestamp="2026-04-20T20:12:18Z" user="OSMnx"><nd ref="25423625" /><nd ref="618955584" /><tag k="oneway" v="yes" /><tag k="lanes" v="3" /><tag k="name" v="復興南路一段" /><tag k="maxspeed" v="50" /><tag k="highway" v="secondary" /></way><way visible="true" uid="1" changeset="1" id="49188548" version="1" timestamp="2026-04-20T20:12:18Z" user="OSMnx"><nd ref="7782558791" /><nd ref="623979839" /><tag k="oneway" v="yes" /><tag k="name" v="八德路二段410巷" /><tag k="highway" v="residential" /></way><way visible="true" uid="1" changeset="1" id="49188550" version="1" timestamp="2026-04-20T20:12:18Z" user="OSMnx"><nd ref="3196968797" /><nd ref="3196968803" /><nd ref="623979905" /><nd ref="7782558792" /><tag k="oneway" v="yes" /><tag k="name" v="八德路二段366巷" /><tag k="maxspeed" v="30" /><tag k="highway" v="residential" /></way><way visible="true" uid="1" changeset="1" id="49188553" version="1" timestamp="2026-04-20T20:12:18Z" user="OSMnx"><nd ref="7782558789" /><nd ref="623979993" /><tag k="oneway" v="yes" /><tag k="highway" v="residential" /></way><way visible="true" uid="1" changeset="1" id="49710810" version="1" timestamp="2026-04-20T20:12:18Z" user="OSMnx"><nd ref="631821939" /><nd ref="4300984784" /><nd ref="631821941" /><tag k="oneway" v="yes" /><tag k="name" v="安東街16巷18弄" /><tag k="highway" v="residential" /></way><way visible="true" uid="1" changeset="1" id="49710819" version="1" timestamp="2026-04-20T20:12:18Z" user="OSMnx"><nd ref="631821971" /><nd ref="631821957" /><nd ref="631821939" /><nd ref="631821960" /><nd ref="12237583037" /><nd ref="12328793110" /><nd ref="631821946" /><tag k="oneway" v="no" /><tag k="name" v="安東街16巷" /><tag k="highway" v="residential" /></way><way visible="true" uid="1" changeset="1" id="49710830" version="1" timestamp="2026-04-20T20:12:18Z" user="OSMnx"><nd ref="7782558790" /><nd ref="631822003" /><tag k="oneway" v="yes" /><tag k="name" v="安東街" /><tag k="highway" v="residential" /></way><way visible="true" uid="1" changeset="1" id="196961202" version="1" timestamp="2026-04-20T20:12:18Z" user="OSMnx"><nd ref="618865982" /><nd ref="4510564553" /><nd ref="9321537869" /><nd ref="619136857" /><nd ref="6257336102" /><nd ref="619136879" /><nd ref="6691390583" /><nd ref="619136874" /><nd ref="6257338687" /><tag k="oneway" v="yes" /><tag k="lanes" v="3" /><tag k="name" v="復興南路一段" /><tag k="maxspeed" v="50" /><tag k="highway" v="secondary" /></way><way visible="true" uid="1" changeset="1" id="196961209" version="1" timestamp="2026-04-20T20:12:18Z" user="OSMnx"><nd ref="622617839" /><nd ref="4494235154" /><nd ref="622617959" /><nd ref="5296993495" /><nd ref="622617930" /><nd ref="5296993490" /><tag k="oneway" v="yes" /><tag k="ref" v="5" /><tag k="lanes" v="3" /><tag k="name" v="忠孝東路三段" /><tag k="highway" v="primary" /></way><way visible="true" uid="1" changeset="1" id="198922262" version="1" timestamp="2026-04-20T20:12:18Z" user="OSMnx"><nd ref="2089915606" /><nd ref="6354698695" /><nd ref="2089915604" /><tag k="oneway" v="no" /><tag k="highway" v="residential" /></way><way visible="true" uid="1" changeset="1" id="198922264" version="1" timestamp="2026-04-20T20:12:18Z" user="OSMnx"><nd ref="181184587" /><nd ref="5296993479" /><nd ref="3091510498" /><nd ref="619120383" /><nd ref="5695162338" /><nd ref="619120359" /><nd ref="4504820301" /><nd ref="3299072820" /><nd ref="4525683912" /><nd ref="618955585" /><nd ref="618955703" /><tag k="oneway" v="yes" /><tag k="lanes" v="3" /><tag k="name" v="復興南路一段" /><tag k="maxspeed" v="50" /><tag k="highway" v="secondary" /></way><way visible="true" uid="1" changeset="1" id="198922265" version="1" timestamp="2026-04-20T20:12:18Z" user="OSMnx"><nd ref="622617694" /><nd ref="4436527895" /><nd ref="622617663" /><tag k="oneway" v="yes" /><tag k="name" v="復興南路一段122巷" /><tag k="highway" v="residential" /></way><way visible="true" uid="1" changeset="1" id="198922266" version="1" timestamp="2026-04-20T20:12:18Z" user="OSMnx"><nd ref="622617663" /><nd ref="5296993478" /><nd ref="6257339206" /><tag k="oneway" v="yes" /><tag k="name" v="復興南路一段126巷" /><tag k="highway" v="residential" /></way><way visible="true" uid="1" changeset="1" id="238452886" version="1" timestamp="2026-04-20T20:12:18Z" user="OSMnx"><nd ref="622617839" /><nd ref="2462876030" /><tag k="oneway" v="yes" /><tag k="name" v="忠孝東路三段251巷" /><tag k="highway" v="residential" /></way><way visible="true" uid="1" changeset="1" id="238526535" version="1" timestamp="2026-04-20T20:12:18Z" user="OSMnx"><nd ref="618865982" /><nd ref="253559061" /><tag k="oneway" v="yes" /><tag k="ref" v="5" /><tag k="lanes" v="4" /><tag k="name" v="忠孝東路四段" /><tag k="highway" v="primary" /></way><way visible="true" uid="1" changeset="1" id="239206121" version="1" timestamp="2026-04-20T20:12:18Z" user="OSMnx"><nd ref="618866369" /><nd ref="9599479073" /><nd ref="618866856" /><nd ref="9599479070" /><nd ref="618865756" /><nd ref="9599479065" /><nd ref="618866246" /><nd ref="9599479062" /><nd ref="618866202" /><nd ref="618866467" /><nd ref="618866148" /><nd ref="4510564548" /><nd ref="618866597" /><tag k="oneway" v="yes" /><tag k="name" v="大安路一段" /><tag k="highway" v="tertiary" /></way><way visible="true" uid="1" changeset="1" id="244450473" version="1" timestamp="2026-04-20T20:12:18Z" user="OSMnx"><nd ref="3179725582" /><nd ref="5296993494" /><nd ref="619136824" /><nd ref="9321537867" /><nd ref="619136868" /><tag k="oneway" v="yes" /><tag k="ref" v="5" /><tag k="lanes" v="3" /><tag k="name" v="忠孝東路三段" /><tag k="highway" v="primary" /></way><way visible="true" uid="1" changeset="1" id="245932670" version="1" timestamp="2026-04-20T20:12:18Z" user="OSMnx"><nd ref="618866202" /><nd ref="618866199" /><tag k="oneway" v="yes" /><tag k="name" v="大安路一段101巷" /><tag k="highway" v="residential" /></way><way visible="true" uid="1" changeset="1" id="261880792" version="1" timestamp="2026-04-20T20:12:18Z" user="OSMnx"><nd ref="619120419" /><nd ref="4300984755" /><nd ref="618955736" /><tag k="oneway" v="no" /><tag k="name" v="敦化南路一段190巷" /><tag k="highway" v="residential" /></way><way visible="true" uid="1" changeset="1" id="261880794" version="1" timestamp="2026-04-20T20:12:18Z" user="OSMnx"><nd ref="618955736" /><nd ref="7782558669" /><nd ref="6253384639" /><nd ref="619120343" /><nd ref="619120329" /><nd ref="4504820295" /><nd ref="619120383" /><tag k="oneway" v="yes" /><tag k="name" v="復興南路一段135巷" /><tag k="highway" v="residential" /></way><way visible="true" uid="1" changeset="1" id="261881435" version="1" timestamp="2026-04-20T20:12:18Z" user="OSMnx"><nd ref="619120361" /><nd ref="4300984762" /><nd ref="619120364" /><tag k="oneway" v="yes" /><tag k="name" v="敦化南路一段160巷" /><tag k="highway" v="residential" /></way><way visible="true" uid="1" changeset="1" id="303647014" version="1" timestamp="2026-04-20T20:12:18Z" user="OSMnx"><nd ref="618955703" /><nd ref="25423625" /><nd ref="4435537545" /><nd ref="6257338969" /><nd ref="3176779339" /><nd ref="3196998939" /><nd ref="631822000" /><nd ref="6252193075" /><nd ref="631822003" /><nd ref="622618234" /><nd ref="622618235" /><nd ref="3196998937" /><nd ref="622618236" /><nd ref="3196998936" /><nd ref="2462427857" /><nd ref="631821941" /><nd ref="3196998935" /><nd ref="622618237" /><nd ref="12328793109" /><tag k="oneway" v="yes" /><tag k="lanes" v="2" /><tag k="name" v="市民大道三段" /><tag k="maxspeed" v="40" /><tag k="highway" v="tertiary" /></way><way visible="true" uid="1" changeset="1" id="303647019" version="1" timestamp="2026-04-20T20:12:18Z" user="OSMnx"><nd ref="618955585" /><nd ref="6397117059" /><nd ref="619120332" /><nd ref="3196968791" /><nd ref="3196968792" /><nd ref="618955586" /><nd ref="618955587" /><nd ref="4210572479" /><nd ref="3196968797" /><nd ref="4300984785" /><nd ref="618955589" /><nd ref="3196968796" /><nd ref="618955590" /><nd ref="3196968795" /><nd ref="3196968793" /><nd ref="618955591" /><nd ref="619120418" /><tag k="oneway" v="yes" /><tag k="name" v="市民大道四段" /><tag k="highway" v="tertiary" /></way><way visible="true" uid="1" changeset="1" id="304104540" version="1" timestamp="2026-04-20T20:12:18Z" user="OSMnx"><nd ref="622617831" /><nd ref="622617916" /><tag k="oneway" v="yes" /><tag k="name" v="安東街40巷" /><tag k="highway" v="residential" /></way><way visible="true" uid="1" changeset="1" id="304104749" version="1" timestamp="2026-04-20T20:12:18Z" user="OSMnx"><nd ref="622617916" /><nd ref="7782558787" /><nd ref="6261442753" /><nd ref="6261442752" /><nd ref="622617641" /><nd ref="7782558788" /><nd ref="3179421122" /><nd ref="622617809" /><nd ref="3179421124" /><nd ref="622617798" /><nd ref="3179520774" /><nd ref="622617783" /><nd ref="3179586051" /><nd ref="622617775" /><nd ref="3179586964" /><nd ref="622617835" /><nd ref="3179627305" /><nd ref="622617837" /><nd ref="4494235152" /><nd ref="622617839" /><tag k="oneway" v="yes" /><tag k="name" v="忠孝東路三段251巷" /><tag k="highway" v="residential" /></way><way visible="true" uid="1" changeset="1" id="304804093" version="1" timestamp="2026-04-20T20:12:18Z" user="OSMnx"><nd ref="622617649" /><nd ref="7782558785" /><nd ref="622617652" /><nd ref="622617655" /><nd ref="622617658" /><nd ref="6261009024" /><nd ref="6261009025" /><nd ref="622617660" /><nd ref="7782558783" /><nd ref="622617663" /><tag k="oneway" v="yes" /><tag k="name" v="復興南路一段122巷" /><tag k="highway" v="residential" /></way><way visible="true" uid="1" changeset="1" id="304850036" version="1" timestamp="2026-04-20T20:12:18Z" user="OSMnx"><nd ref="622617823" /><nd ref="5296993482" /><nd ref="5296993481" /><nd ref="6257339214" /><nd ref="6257339215" /><nd ref="4401555253" /><nd ref="622617826" /><nd ref="12328347519" /><nd ref="12328347516" /><tag k="oneway" v="yes" /><tag k="name" v="安東街35巷" /><tag k="highway" v="residential" /></way><way visible="true" uid="1" changeset="1" id="304850037" version="1" timestamp="2026-04-20T20:12:18Z" user="OSMnx"><nd ref="622617976" /><nd ref="4510564532" /><nd ref="3179619582" /><nd ref="622617965" /><nd ref="3179627306" /><nd ref="622617901" /><nd ref="622617772" /><nd ref="622617784" /><nd ref="7700422424" /><nd ref="622617691" /><nd ref="622617801" /><nd ref="3179421125" /><nd ref="622617810" /><nd ref="6257339224" /><nd ref="622617649" /><nd ref="622617831" /><nd ref="7782558786" /><nd ref="4525683908" /><nd ref="622617973" /><tag k="oneway" v="yes" /><tag k="name" v="安東街" /><tag k="maxspeed" v="30" /><tag k="highway" v="residential" /></way><way visible="true" uid="1" changeset="1" id="312110133" version="1" timestamp="2026-04-20T20:12:18Z" user="OSMnx"><nd ref="3179389658" /><nd ref="3179389657" /><nd ref="4408417173" /><nd ref="622617925" /><nd ref="3178388683" /><nd ref="622617760" /><tag k="oneway" v="no" /><tag k="name" v="安東街40巷" /><tag k="highway" v="residential" /></way><way visible="true" uid="1" changeset="1" id="312128085" version="1" timestamp="2026-04-20T20:12:18Z" user="OSMnx"><nd ref="622617760" /><nd ref="622617754" /><nd ref="622617731" /><nd ref="6261452237" /><nd ref="622617793" /><nd ref="622617735" /><nd ref="622617891" /><nd ref="622617865" /><nd ref="622617928" /><nd ref="622617858" /><nd ref="4510564530" /><nd ref="622617930" /><nd ref="3179725582" /><tag k="oneway" v="no" /><tag k="name" v="忠孝東路三段217巷" /><tag k="highway" v="residential" /></way><way visible="true" uid="1" changeset="1" id="313682484" version="1" timestamp="2026-04-20T20:12:18Z" user="OSMnx"><nd ref="3196968810" /><nd ref="3196968807" /><nd ref="3196968798" /><nd ref="3196968793" /><tag k="oneway" v="yes" /><tag k="name" v="迴轉道" /><tag k="highway" v="tertiary_link" /></way><way visible="true" uid="1" changeset="1" id="313682485" version="1" timestamp="2026-04-20T20:12:18Z" user="OSMnx"><nd ref="3196968791" /><nd ref="3196968801" /><nd ref="3196968804" /><nd ref="3196968806" /><tag k="oneway" v="yes" /><tag k="name" v="迴轉道" /><tag k="highway" v="tertiary_link" /></way><way visible="true" uid="1" changeset="1" id="313682487" version="1" timestamp="2026-04-20T20:12:18Z" user="OSMnx"><nd ref="3196968795" /><nd ref="3196968799" /><nd ref="3196968808" /><nd ref="3196968811" /><tag k="oneway" v="yes" /><tag k="name" v="迴轉道" /><tag k="highway" v="tertiary_link" /></way><way visible="true" uid="1" changeset="1" id="313682488" version="1" timestamp="2026-04-20T20:12:18Z" user="OSMnx"><nd ref="3196968809" /><nd ref="3196968805" /><nd ref="3196968800" /><nd ref="3196968792" /><tag k="oneway" v="yes" /><tag k="name" v="迴轉道" /><tag k="highway" v="tertiary_link" /></way><way visible="true" uid="1" changeset="1" id="313684474" version="1" timestamp="2026-04-20T20:12:18Z" user="OSMnx"><nd ref="3196998921" /><nd ref="3196998924" /><nd ref="3196998932" /><nd ref="3196998936" /><tag k="oneway" v="yes" /><tag k="name" v="迴轉道" /><tag k="highway" v="tertiary_link" /></way><way visible="true" uid="1" changeset="1" id="313684476" version="1" timestamp="2026-04-20T20:12:18Z" user="OSMnx"><nd ref="3196998937" /><nd ref="3196998933" /><nd ref="3196998923" /><nd ref="3196998922" /><tag k="oneway" v="yes" /><tag k="name" v="迴轉道" /><tag k="highway" v="tertiary_link" /></way><way visible="true" uid="1" changeset="1" id="313684478" version="1" timestamp="2026-04-20T20:12:18Z" user="OSMnx"><nd ref="3196998928" /><nd ref="3196998934" /><nd ref="3196998938" /><nd ref="3196998939" /><tag k="oneway" v="yes" /><tag k="name" v="迴轉道" /><tag k="highway" v="tertiary_link" /></way><way visible="true" uid="1" changeset="1" id="323113130" version="1" timestamp="2026-04-20T20:12:18Z" user="OSMnx"><nd ref="619120331" /><nd ref="619120340" /><nd ref="619120361" /><tag k="oneway" v="yes" /><tag k="name" v="復興南路一段107巷" /><tag k="highway" v="residential" /></way><way visible="true" uid="1" changeset="1" id="348745650" version="1" timestamp="2026-04-20T20:12:18Z" user="OSMnx"><nd ref="253559061" /><nd ref="181184587" /><tag k="oneway" v="yes" /><tag k="name" v="復興南路一段" /><tag k="maxspeed" v="50" /><tag k="highway" v="secondary" /></way><way visible="true" uid="1" changeset="1" id="348745651" version="1" timestamp="2026-04-20T20:12:18Z" user="OSMnx"><nd ref="618866534" /><nd ref="6397118897" /><nd ref="13671758068" /><tag k="oneway" v="yes" /><tag k="ref" v="5" /><tag k="lanes" v="5" /><tag k="name" v="忠孝東路四段" /><tag k="highway" v="primary" /></way><way visible="true" uid="1" changeset="1" id="348745652" version="1" timestamp="2026-04-20T20:12:18Z" user="OSMnx"><nd ref="253559061" /><nd ref="4510462195" /><nd ref="618866136" /><nd ref="4202524167" /><nd ref="618866397" /><nd ref="5382973796" /><nd ref="618866597" /><tag k="oneway" v="yes" /><tag k="ref" v="5" /><tag k="lanes" v="4" /><tag k="name" v="忠孝東路四段" /><tag k="highway" v="primary" /></way><way visible="true" uid="1" changeset="1" id="405980642" version="1" timestamp="2026-04-20T20:12:18Z" user="OSMnx"><nd ref="619137551" /><nd ref="619136871" /><nd ref="619137557" /><nd ref="4494088916" /><nd ref="3566466565" /><nd ref="4596732502" /><nd ref="2574671663" /><nd ref="4494088909" /><tag k="oneway" v="yes" /><tag k="lanes" v="2" /><tag k="name" v="仁愛路三段" /><tag k="highway" v="secondary" /></way><way visible="true" uid="1" changeset="1" id="405980656" version="1" timestamp="2026-04-20T20:12:18Z" user="OSMnx"><nd ref="618865977" /><nd ref="618865982" /><tag k="oneway" v="yes" /><tag k="name" v="復興南路一段" /><tag k="maxspeed" v="50" /><tag k="highway" v="secondary" /></way><way visible="true" uid="1" changeset="1" id="405980657" version="1" timestamp="2026-04-20T20:12:18Z" user="OSMnx"><nd ref="6257338686" /><nd ref="3091222622" /><nd ref="618866860" /><nd ref="6691390582" /><nd ref="618866230" /><nd ref="6257336101" /><nd ref="618866143" /><nd ref="3091510497" /><nd ref="5296993480" /><nd ref="253559061" /><tag k="oneway" v="yes" /><tag k="lanes" v="3" /><tag k="name" v="復興南路一段" /><tag k="maxspeed" v="50" /><tag k="highway" v="secondary" /></way><way visible="true" uid="1" changeset="1" id="506316041" version="1" timestamp="2026-04-20T20:12:18Z" user="OSMnx"><nd ref="618955584" /><nd ref="4525683911" /><nd ref="622617823" /><nd ref="5695162337" /><nd ref="4504820299" /><nd ref="622617694" /><nd ref="6257339206" /><nd ref="5695162336" /><nd ref="5296993497" /><nd ref="618865977" /><tag k="oneway" v="yes" /><tag k="lanes" v="3" /><tag k="name" v="復興南路一段" /><tag k="maxspeed" v="50" /><tag k="highway" v="secondary" /></way><way visible="true" uid="1" changeset="1" id="506316042" version="1" timestamp="2026-04-20T20:12:18Z" user="OSMnx"><nd ref="618955584" /><nd ref="618955585" /><tag k="oneway" v="yes" /><tag k="name" v="市民大道三段" /><tag k="highway" v="tertiary" /></way><way visible="true" uid="1" changeset="1" id="506316043" version="1" timestamp="2026-04-20T20:12:18Z" user="OSMnx"><nd ref="181184587" /><nd ref="618865977" /><tag k="oneway" v="yes" /><tag k="ref" v="5" /><tag k="lanes" v="4" /><tag k="name" v="忠孝東路四段" /><tag k="highway" v="primary" /></way><way visible="true" uid="1" changeset="1" id="506322859" version="1" timestamp="2026-04-20T20:12:18Z" user="OSMnx"><nd ref="618866597" /><nd ref="5621025627" /><nd ref="7130801999" /><nd ref="7721115265" /><nd ref="618866534" /><tag k="oneway" v="yes" /><tag k="ref" v="5" /><tag k="lanes" v="5" /><tag k="name" v="忠孝東路四段" /><tag k="maxspeed" v="50" /><tag k="highway" v="primary" /></way><way visible="true" uid="1" changeset="1" id="506322860" version="1" timestamp="2026-04-20T20:12:18Z" user="OSMnx"><nd ref="618866597" /><nd ref="618866932" /><nd ref="5382973788" /><nd ref="619120333" /><nd ref="619120409" /><nd ref="7782558670" /><nd ref="618955736" /><nd ref="7782558671" /><nd ref="619120324" /><nd ref="619120361" /><nd ref="619120246" /><nd ref="619120277" /><nd ref="619120318" /><nd ref="619120261" /><nd ref="4525683916" /><nd ref="3196968797" /><tag k="oneway" v="yes" /><tag k="lanes" v="2" /><tag k="name" v="大安路一段" /><tag k="highway" v="tertiary" /></way><way visible="true" uid="1" changeset="1" id="506322861" version="1" timestamp="2026-04-20T20:12:18Z" user="OSMnx"><nd ref="619120421" /><nd ref="7721115264" /><nd ref="9321537873" /><nd ref="5382973791" /><nd ref="618866932" /><nd ref="5382973795" /><nd ref="619120353" /><nd ref="619120327" /><nd ref="4504820291" /><nd ref="181184587" /><tag k="oneway" v="yes" /><tag k="ref" v="5" /><tag k="lanes" v="4" /><tag k="name" v="忠孝東路四段" /><tag k="maxspeed" v="50" /><tag k="highway" v="primary" /></way><way visible="true" uid="1" changeset="1" id="506322862" version="1" timestamp="2026-04-20T20:12:18Z" user="OSMnx"><nd ref="619120421" /><nd ref="618866534" /><tag k="oneway" v="yes" /><tag k="name" v="忠孝東路四段77巷" /><tag k="highway" v="residential" /></way><way visible="true" uid="1" changeset="1" id="518982586" version="1" timestamp="2026-04-20T20:12:18Z" user="OSMnx"><nd ref="623979724" /><nd ref="3196968810" /><nd ref="618955695" /><nd ref="3196968811" /><nd ref="623979839" /><nd ref="4418785148" /><nd ref="623979905" /><nd ref="618955699" /><nd ref="623979993" /><nd ref="3196968809" /><nd ref="3196968806" /><nd ref="9628907779" /><nd ref="3091510501" /><nd ref="6397117060" /><nd ref="618955703" /><tag k="oneway" v="yes" /><tag k="lanes" v="2" /><tag k="name" v="市民大道四段" /><tag k="highway" v="tertiary" /></way><way visible="true" uid="1" changeset="1" id="593849718" version="1" timestamp="2026-04-20T20:12:18Z" user="OSMnx"><nd ref="3178381528" /><nd ref="622618201" /><nd ref="4408417178" /><nd ref="3196998920" /><nd ref="622617671" /><nd ref="2462427854" /><nd ref="3196998921" /><nd ref="3196998922" /><nd ref="622618203" /><nd ref="618955583" /><nd ref="622617973" /><nd ref="622617687" /><nd ref="3196998928" /><nd ref="4436527894" /><nd ref="4435537543" /><nd ref="618955584" /><tag k="oneway" v="yes" /><tag k="lanes" v="2" /><tag k="name" v="市民大道三段" /><tag k="highway" v="tertiary" /></way><way visible="true" uid="1" changeset="1" id="623877957" version="1" timestamp="2026-04-20T20:12:18Z" user="OSMnx"><nd ref="618865977" /><nd ref="5296993501" /><nd ref="622617976" /><nd ref="9321537868" /><nd ref="4494235155" /><nd ref="622617839" /><tag k="oneway" v="yes" /><tag k="ref" v="5" /><tag k="lanes" v="3" /><tag k="name" v="忠孝東路三段" /><tag k="highway" v="primary" /></way><way visible="true" uid="1" changeset="1" id="623877960" version="1" timestamp="2026-04-20T20:12:18Z" user="OSMnx"><nd ref="2462876030" /><nd ref="4494235153" /><nd ref="619136858" /><nd ref="5296993502" /><nd ref="618865982" /><tag k="oneway" v="yes" /><tag k="ref" v="5" /><tag k="lanes" v="4" /><tag k="name" v="忠孝東路三段" /><tag k="highway" v="primary" /></way><way visible="true" uid="1" changeset="1" id="669473545" version="1" timestamp="2026-04-20T20:12:18Z" user="OSMnx"><nd ref="619136855" /><nd ref="619136859" /><tag k="oneway" v="no" /><tag k="name" v="忠孝東路三段276巷" /><tag k="highway" v="residential" /></way><way visible="true" uid="1" changeset="1" id="1312616705" version="1" timestamp="2026-04-20T20:12:18Z" user="OSMnx"><nd ref="6354698711" /><nd ref="25423625" /><tag k="oneway" v="yes" /><tag k="lanes" v="4" /><tag k="name" v="復興南路一段" /><tag k="maxspeed" v="50" /><tag k="highway" v="secondary" /></way><way visible="true" uid="1" changeset="1" id="1332576925" version="1" timestamp="2026-04-20T20:12:18Z" user="OSMnx"><nd ref="12328347516" /><nd ref="12345583578" /><nd ref="12872938907" /><nd ref="622617831" /><tag k="oneway" v="yes" /><tag k="name" v="安東街" /><tag k="highway" v="residential" /></way><way visible="true" uid="1" changeset="1" id="1334464949" version="1" timestamp="2026-04-20T20:12:18Z" user="OSMnx"><nd ref="622617760" /><nd ref="3178400027" /><tag k="oneway" v="yes" /><tag k="name" v="忠孝東路三段217巷7弄" /><tag k="highway" v="residential" /></way><way visible="true" uid="1" changeset="1" id="1390680445" version="1" timestamp="2026-04-20T20:12:18Z" user="OSMnx"><nd ref="4525683909" /><nd ref="12328347517" /><nd ref="12328347516" /><tag k="oneway" v="yes" /><tag k="name" v="安東街" /><tag k="highway" v="residential" /></way><way visible="true" uid="1" changeset="1" id="1492514258" version="1" timestamp="2026-04-20T20:12:18Z" user="OSMnx"><nd ref="5296993491" /><nd ref="3179725582" /><tag k="oneway" v="yes" /><tag k="ref" v="5" /><tag k="lanes" v="4" /><tag k="name" v="忠孝東路三段" /><tag k="highway" v="primary" /></way><way visible="true" uid="1" changeset="1" id="1492514259" version="1" timestamp="2026-04-20T20:12:18Z" user="OSMnx"><nd ref="619136868" /><nd ref="4494235148" /><nd ref="2462876030" /><tag k="oneway" v="yes" /><tag k="ref" v="5" /><tag k="lanes" v="4" /><tag k="name" v="忠孝東路三段" /><tag k="highway" v="primary" /></way></osm>